{"type":"FeatureCollection","features":[{"type":"Feature","properties":{"name":"Sweetgreen","country":"United States","country_code":"us","state":"California","county":"Santa Clara County","city":"Sunnyvale","postcode":"94087","street":"West El Camino Real","housenumber":"300","lon":-122.0354375,"lat":37.3683134,"state_code":"CA","formatted":"Sweetgreen, 300 West El Camino Real, Sunnyvale, CA 94087, United States of America","address_line1":"Sweetgreen","address_line2":"300 West El Camino Real, Sunnyvale, CA 94087, United States of America","categories":["catering","catering.fast_food","catering.fast_food.salad"],"details":["details","details.catering","details.contact","details.facilities"],"datasource":{"sourcename":"openstreetmap","attribution":"© OpenStreetMap contributors","license":"Open Database License","url":"https://www.openstreetmap.org/copyright","raw":{"name":"Sweetgreen","brand":"Sweetgreen","phone":"+1 415 7379900","osm_id":266671569,"amenity":"fast_food","cuisine":"salad","website":"https://order.sweetgreen.com/sunnyvale/menu","osm_type":"n","takeaway":"yes","addr:city":"Sunnyvale","addr:street":"West El Camino Real","addr:postcode":94087,"opening_hours":"Mo-Su 10:30-21:00","brand:wikidata":"Q18636413","addr:housenumber":300,"opening_hours:url":"https://order.sweetgreen.com/sunnyvale/menu"}},"website":"https://order.sweetgreen.com/sunnyvale/menu","opening_hours":"Mo-Su 10:30-21:00","brand":"Sweetgreen","brand_details":{"wikidata":"Q18636413"},"contact":{"phone":"+1 415 7379900"},"facilities":{"takeaway":true},"catering":{"cuisine":"salad"},"place_id":"5152e3a59b44825ec059789dbbe424af4240f00103f901d115e50f0000000092030a5377656574677265656e"},"geometry":{"type":"Point","coordinates":[-122.03543749999997,37.36831339989561]}},{"type":"Feature","properties":{"name":"Five Guys","country":"United States","country_code":"us","state":"California","county":"Santa Clara County","city":"Sunnyvale","postcode":"94085","street":"East El Camino Real","housenumber":"116","lon":-122.0320214,"lat":37.3666479,"state_code":"CA","formatted":"Five Guys, 116 East El Camino Real, Sunnyvale, CA 94085, United States of America","address_line1":"Five Guys","address_line2":"116 East El Camino Real, Sunnyvale, CA 94085, United States of America","categories":["catering","catering.fast_food","catering.fast_food.burger"],"details":["details","details.catering","details.contact","details.facilities"],"datasource":{"sourcename":"openstreetmap","attribution":"© OpenStreetMap contributors","license":"Open Database License","url":"https://www.openstreetmap.org/copyright","raw":{"name":"Five Guys","brand":"Five Guys","phone":"+1 408 830 9100","osm_id":1067596078,"amenity":"fast_food","cuisine":"burger","website":"https://www.fiveguys.com/","osm_type":"n","takeaway":"yes","addr:street":"East El Camino Real","addr:postcode":94085,"official_name":"Five Guys Burgers and Fries","opening_hours":"Mo-Su 11:00-22:00","brand:wikidata":"Q1131810","outdoor_seating":"yes","addr:housenumber":116}},"website":"https://www.fiveguys.com/","opening_hours":"Mo-Su 11:00-22:00","brand":"Five Guys","brand_details":{"wikidata":"Q1131810"},"name_other":{"official_name":"Five Guys Burgers and Fries"},"contact":{"phone":"+1 408 830 9100"},"facilities":{"outdoor_seating":true,"takeaway":true},"catering":{"cuisine":"burger"},"place_id":"516b717ca30c825ec05952998151eeae4240f00103f9012e39a23f00000000920309466976652047757973"},"geometry":{"type":"Point","coordinates":[-122.0320214,37.3666478998954]}},{"type":"Feature","properties":{"name":"A Slice of New York","country":"United States","country_code":"us","state":"California","county":"Santa Clara County","city":"Sunnyvale","postcode":"94086","street":"West El Camino Real","housenumber":"1253","lon":-122.0579381,"lat":37.3751757,"state_code":"CA","formatted":"A Slice of New York, 1253 West El Camino Real, Sunnyvale, CA 94086, United States of America","address_line1":"A Slice of New York","address_line2":"1253 West El Camino Real, Sunnyvale, CA 94086, United States of America","categories":["catering","catering.fast_food","catering.fast_food.pizza","wheelchair","wheelchair.limited"],"details":["details","details.catering","details.contact","details.facilities"],"datasource":{"sourcename":"openstreetmap","attribution":"© OpenStreetMap contributors","license":"Open Database License","url":"https://www.openstreetmap.org/copyright","raw":{"name":"A Slice of New York","phone":"+1 650-938-6969","osm_id":2780987618,"amenity":"fast_food","cuisine":"pizza","website":"https://www.asliceofny.com/","osm_type":"n","takeaway":"yes","addr:city":"Sunnyvale","addr:unit":"D","addr:state":"CA","wheelchair":"limited","addr:street":"West El Camino Real","addr:country":"US","addr:postcode":94086,"opening_hours":"Mo closed; Tu-Th 15:00-21:00; Fr-Sa 11:00-22:00; Su 12:30-19:30","phone:mnemonic":"+1-650-938-NYNY","addr:housenumber":1253,"opening_hours:url":"https://asliceofny.com/sunnyvale/","opening_hours:kitchen":"Mo closed; Tu-Th 15:00-20:30; Fr-Sa 11:00-21:30; Su 12:30-19:00"}},"website":"https://www.asliceofny.com/","opening_hours":"Mo closed; Tu-Th 15:00-21:00; Fr-Sa 11:00-22:00; Su 12:30-19:30","contact":{"phone":"+1 650-938-6969"},"facilities":{"wheelchair":true,"wheelchair_details":{"condition":"limited"},"takeaway":true},"catering":{"cuisine":"pizza"},"place_id":"514e2c0142b5835ec0599da7e0c105b04240f00103f901e280c2a5000000009203134120536c696365206f66204e657720596f726b"},"geometry":{"type":"Point","coordinates":[-122.05793809999997,37.37517569989652]}},{"type":"Feature","properties":{"name":"Ike's Love & Sandwiches","country":"United States","country_code":"us","state":"California","county":"Santa Clara County","city":"Sunnyvale","postcode":"94087","street":"West El Camino Real","housenumber":"1253","lon":-122.0580354,"lat":37.3749913,"state_code":"CA","formatted":"Ike's Love & Sandwiches, 1253 West El Camino Real, Sunnyvale, CA 94087, United States of America","address_line1":"Ike's Love & Sandwiches","address_line2":"1253 West El Camino Real, Sunnyvale, CA 94087, United States of America","categories":["catering","catering.fast_food","catering.fast_food.sandwich"],"details":["details","details.catering","details.contact","details.facilities"],"datasource":{"sourcename":"openstreetmap","attribution":"© OpenStreetMap contributors","license":"Open Database License","url":"https://www.openstreetmap.org/copyright","raw":{"name":"Ike's Love & Sandwiches","email":"ikessunnyvale@loveandswiches.com","phone":"669-600-3962","osm_id":2780987620,"amenity":"fast_food","cuisine":"sandwich","website":"http://www.loveandsandwiches.com/menu/pdf/2019%208X11-SNYVL.PDF","operator":"Ikes Love & Sandwiches","osm_type":"n","takeaway":"yes","addr:city":"Sunnyvale","addr:state":"CA","addr:street":"West El Camino Real","addr:country":"US","addr:postcode":94087,"drive_through":"no","opening_hours":"Su 10:00-19:00, Mo-Sa 10:00-20:00","addr:housenumber":1253}},"website":"http://www.loveandsandwiches.com/menu/pdf/2019%208X11-SNYVL.PDF","opening_hours":"Su 10:00-19:00, Mo-Sa 10:00-20:00","operator":"Ikes Love & Sandwiches","contact":{"phone":"669-600-3962","email":"ikessunnyvale@loveandswiches.com"},"facilities":{"takeaway":true},"catering":{"cuisine":"sandwich"},"place_id":"51a8401cdab6835ec05985ab04b7ffaf4240f00103f901e480c2a500000000920317496b652773204c6f766520262053616e64776963686573"},"geometry":{"type":"Point","coordinates":[-122.0580354,37.3749912998965]}},{"type":"Feature","properties":{"name":"KFC","country":"United States","country_code":"us","state":"California","county":"Santa Clara County","city":"Sunnyvale","postcode":"94085","street":"West Maude Avenue","housenumber":"340","lon":-122.029605,"lat":37.389107,"state_code":"CA","formatted":"KFC, 340 West Maude Avenue, Sunnyvale, CA 94085, United States of America","address_line1":"KFC","address_line2":"340 West Maude Avenue, Sunnyvale, CA 94085, United States of America","categories":["catering","catering.fast_food"],"details":["details","details.catering","details.contact","details.facilities"],"datasource":{"sourcename":"openstreetmap","attribution":"© OpenStreetMap contributors","license":"Open Database License","url":"https://www.openstreetmap.org/copyright","raw":{"name":"KFC","brand":"KFC","osm_id":4105633595,"amenity":"fast_food","cuisine":"chicken","website":"https://locations.kfc.com/ca/sunnyvale/340-west-maude-avenue","alt_name":"Kentucky Fried Chicken","osm_type":"n","takeaway":"yes","addr:city":"Sunnyvale","addr:unit":"159;340","addr:state":"CA","addr:street":"West Maude Avenue","addr:country":"US","addr:postcode":"94085;94086","contact:phone":"+1 408-730-0511","opening_hours":"Mo-Su 10:30-22:00","brand:wikidata":"Q524757","addr:housenumber":340}},"website":"https://locations.kfc.com/ca/sunnyvale/340-west-maude-avenue","opening_hours":"Mo-Su 10:30-22:00","brand":"KFC","brand_details":{"wikidata":"Q524757"},"name_other":{"alt_name":"Kentucky Fried Chicken"},"contact":{"phone":"+1 408-730-0511"},"facilities":{"takeaway":true},"catering":{"cuisine":"chicken"},"place_id":"5114b35e0ce5815ec059a59a1742ceb14240f00103f9013bffb6f4000000009203034b4643"},"geometry":{"type":"Point","coordinates":[-122.029605,37.38910699989837]}},{"type":"Feature","properties":{"name":"The Halal Guys","country":"United States","country_code":"us","state":"California","county":"Santa Clara County","city":"Sunnyvale","postcode":"94087","street":"West El Camino Real","housenumber":"328","lon":-122.0361764,"lat":37.3677809,"state_code":"CA","formatted":"The Halal Guys, 328 West El Camino Real, Sunnyvale, CA 94087, United States of America","address_line1":"The Halal Guys","address_line2":"328 West El Camino Real, Sunnyvale, CA 94087, United States of America","categories":["catering","catering.fast_food","halal"],"details":["details","details.catering","details.contact","details.facilities"],"datasource":{"sourcename":"openstreetmap","attribution":"© OpenStreetMap contributors","license":"Open Database License","url":"https://www.openstreetmap.org/copyright","raw":{"name":"The Halal Guys","brand":"The Halal Guys","phone":"+1 408 6852181","osm_id":9712703217,"amenity":"fast_food","cuisine":"chicken;falafel;gyros","website":"https://thehalalguys.com/locations/328-w-el-camino-real-sunnyvale/","osm_type":"n","takeaway":"yes","addr:city":"Sunnyvale","addr:state":"CA","diet:halal":"yes","addr:street":"West El Camino Real","addr:postcode":94087,"opening_hours":"Mo-Su 11:00-23:00","brand:wikidata":"Q10846129","addr:housenumber":328,"opening_hours:url":"https://thehalalguys.com/locations/328-w-el-camino-real-sunnyvale/"}},"website":"https://thehalalguys.com/locations/328-w-el-camino-real-sunnyvale/","opening_hours":"Mo-Su 11:00-23:00","brand":"The Halal Guys","brand_details":{"wikidata":"Q10846129"},"contact":{"phone":"+1 408 6852181"},"facilities":{"takeaway":true},"catering":{"cuisine":"chicken;falafel;gyros","diet":{"halal":true}},"place_id":"51c5b8d1b650825ec0598a92cc7113af4240f00103f901f116ec420200000092030e5468652048616c616c2047757973"},"geometry":{"type":"Point","coordinates":[-122.0361764,37.36778089989555]}},{"type":"Feature","properties":{"name":"Dish n Dash","country":"United States","country_code":"us","state":"California","county":"Santa Clara County","city":"Sunnyvale","postcode":"94085","street":"North Mathilda Avenue","housenumber":"736","lon":-122.02877695346558,"lat":37.39429235,"state_code":"CA","formatted":"Dish n Dash, 736 North Mathilda Avenue, Sunnyvale, CA 94085, United States of America","address_line1":"Dish n Dash","address_line2":"736 North Mathilda Avenue, Sunnyvale, CA 94085, United States of America","categories":["building","building.catering","catering","catering.fast_food","catering.fast_food.kebab"],"details":["details","details.catering","details.contact"],"datasource":{"sourcename":"openstreetmap","attribution":"© OpenStreetMap contributors","license":"Open Database License","url":"https://www.openstreetmap.org/copyright","raw":{"fax":"+1 408 530 9222","name":"Dish n Dash","phone":"+1-408-530-9200","osm_id":101670503,"amenity":"fast_food","cuisine":"kebab","website":"http://www.dishndashrestaurant.com/","building":"yes","osm_type":"w","addr:city":"Sunnyvale","addr:street":"North Mathilda Avenue","addr:country":"US","addr:postcode":94085,"addr:housenumber":736}},"website":"http://www.dishndashrestaurant.com/","contact":{"phone":"+1-408-530-9200","fax":"+1 408 530 9222"},"catering":{"cuisine":"kebab"},"place_id":"51d9804a7bd7815ec05991f0f52b78b24240f00102f901675e0f060000000092030b44697368206e2044617368"},"geometry":{"type":"Point","coordinates":[-122.0287769534656,37.394292349899054]}},{"type":"Feature","properties":{"name":"Taco Bell","country":"United States","country_code":"us","state":"California","county":"Santa Clara County","city":"Sunnyvale","postcode":"94086","street":"Kifer Road","housenumber":"811","lon":-122.0132485673077,"lat":37.3756208,"state_code":"CA","formatted":"Taco Bell, 811 Kifer Road, Sunnyvale, CA 94086, United States of America","address_line1":"Taco Bell","address_line2":"811 Kifer Road, Sunnyvale, CA 94086, United States of America","categories":["building","building.catering","catering","catering.fast_food"],"details":["details","details.catering","details.facilities"],"datasource":{"sourcename":"openstreetmap","attribution":"© OpenStreetMap contributors","license":"Open Database License","url":"https://www.openstreetmap.org/copyright","raw":{"name":"Taco Bell","brand":"Taco Bell","osm_id":156257492,"amenity":"fast_food","cuisine":"tex-mex","website":"https://locations.tacobell.com/ca/sunnyvale/811-kifer-road.html","building":"yes","osm_type":"w","takeaway":"yes","addr:city":"Sunnyvale","addr:state":"CA","addr:street":"Kifer Road","addr:country":"US","addr:postcode":94086,"drive_through":"yes","opening_hours":"Mo-Su 07:00-01:00","brand:wikidata":"Q752941","addr:housenumber":811}},"website":"https://locations.tacobell.com/ca/sunnyvale/811-kifer-road.html","opening_hours":"Mo-Su 07:00-01:00","brand":"Taco Bell","brand_details":{"wikidata":"Q752941"},"facilities":{"takeaway":true},"catering":{"cuisine":"tex-mex"},"place_id":"518cd38410d9805ec05968a0a55714b04240f00102f901d44c5009000000009203095461636f2042656c6c"},"geometry":{"type":"Point","coordinates":[-122.0132485673077,37.37562079989658]}},{"type":"Feature","properties":{"name":"Chick-fil-A","country":"United States","country_code":"us","state":"California","county":"Santa Clara County","city":"Sunnyvale","postcode":"94807","street":"West El Camino Real","housenumber":"550","lon":-122.03844790535715,"lat":37.369164600000005,"state_code":"CA","formatted":"Chick-fil-A, 550 West El Camino Real, Sunnyvale, CA 94807, United States of America","address_line1":"Chick-fil-A","address_line2":"550 West El Camino Real, Sunnyvale, CA 94807, United States of America","categories":["building","building.catering","catering","catering.fast_food"],"details":["details","details.catering","details.facilities"],"datasource":{"sourcename":"openstreetmap","attribution":"© OpenStreetMap contributors","license":"Open Database License","url":"https://www.openstreetmap.org/copyright","raw":{"name":"Chick-fil-A","brand":"Chick-fil-A","osm_id":239238157,"amenity":"fast_food","cuisine":"chicken","website":"https://www.chick-fil-a.com/","building":"yes","osm_type":"w","takeaway":"yes","addr:city":"Sunnyvale","addr:street":"West El Camino Real","opening_hours":"Mo-Sa 6:30-22:00","brand:wikidata":"Q491516","addr:housenumber":550}},"website":"https://www.chick-fil-a.com/","opening_hours":"Mo-Sa 6:30-22:00","brand":"Chick-fil-A","brand_details":{"wikidata":"Q491516"},"facilities":{"takeaway":true},"catering":{"cuisine":"chicken"},"place_id":"51f40634ee75825ec05951b21dc940af4240f00102f9010d7c420e0000000092030b436869636b2d66696c2d41"},"geometry":{"type":"Point","coordinates":[-122.03844790535715,37.36916459989573]}},{"type":"Feature","properties":{"name":"Falafel Stop","country":"United States","country_code":"us","state":"California","county":"Santa Clara County","city":"Sunnyvale","postcode":"94087","street":"Sunnyvale-Saratoga Road","housenumber":"1325","lon":-122.03270705,"lat":37.35117555,"state_code":"CA","formatted":"Falafel Stop, 1325 Sunnyvale-Saratoga Road, Sunnyvale, CA 94087, United States of America","address_line1":"Falafel Stop","address_line2":"1325 Sunnyvale-Saratoga Road, Sunnyvale, CA 94087, United States of America","categories":["building","building.catering","building.commercial","catering","catering.fast_food"],"details":["details","details.building","details.catering","details.contact"],"datasource":{"sourcename":"openstreetmap","attribution":"© OpenStreetMap contributors","license":"Open Database License","url":"https://www.openstreetmap.org/copyright","raw":{"name":"Falafel Stop","phone":"+1-408-735-7182","osm_id":291848412,"amenity":"fast_food","cuisine":"mediterranean","building":"retail","osm_type":"w","addr:city":"Sunnyvale","addr:state":"CA","addr:street":"Sunnyvale-Saratoga Road","addr:postcode":94087,"drive_through":"no","opening_hours":"11:00-22:00","building:levels":1,"addr:housenumber":1325}},"opening_hours":"11:00-22:00","contact":{"phone":"+1-408-735-7182"},"catering":{"cuisine":"mediterranean"},"building":{"levels":1,"type":"retail"},"place_id":"5150864fdf17825ec05932f90652f3ac4240f00102f901dc4065110000000092030c46616c6166656c2053746f70"},"geometry":{"type":"Point","coordinates":[-122.03270705,37.35117554989337]}},{"type":"Feature","properties":{"name":"Taco Bell","country":"United States","country_code":"us","state":"California","county":"Santa Clara County","city":"Sunnyvale","postcode":"94089","street":"Tasman Drive","housenumber":"1109","lon":-121.9953357,"lat":37.4041357,"state_code":"CA","formatted":"Taco Bell, 1109 Tasman Drive, Sunnyvale, CA 94089, United States of America","address_line1":"Taco Bell","address_line2":"1109 Tasman Drive, Sunnyvale, CA 94089, United States of America","categories":["catering","catering.fast_food"],"details":["details","details.catering","details.facilities"],"datasource":{"sourcename":"openstreetmap","attribution":"© OpenStreetMap contributors","license":"Open Database License","url":"https://www.openstreetmap.org/copyright","raw":{"name":"Taco Bell","brand":"Taco Bell","osm_id":1243937102,"amenity":"fast_food","cuisine":"tex-mex","website":"https://locations.tacobell.com/ca/sunnyvale/1109-tasman-drive.html","osm_type":"n","takeaway":"yes","addr:city":"Sunnyvale","addr:state":"CA","addr:street":"Tasman Drive","opening_hours":"Mo-Su 07:00-24:00","brand:wikidata":"Q752941","addr:housenumber":1109,"air_conditioning":"yes"}},"website":"https://locations.tacobell.com/ca/sunnyvale/1109-tasman-drive.html","opening_hours":"Mo-Su 07:00-24:00","brand":"Taco Bell","brand_details":{"wikidata":"Q752941"},"facilities":{"air_conditioning":true,"takeaway":true},"catering":{"cuisine":"tex-mex"},"place_id":"51a5028294b37f5ec059eb1bf7b7bab34240f00103f9014ef9244a000000009203095461636f2042656c6c"},"geometry":{"type":"Point","coordinates":[-121.99533570000001,37.40413569990036]}},{"type":"Feature","properties":{"name":"¡Una Mas!","country":"United States","country_code":"us","state":"California","county":"Santa Clara County","city":"Sunnyvale","postcode":"94085","street":"Lawrence Expressway","housenumber":"548","lon":-121.9952996,"lat":37.3849039,"state_code":"CA","formatted":"¡Una Mas!, 548 Lawrence Expressway, Sunnyvale, CA 94085, United States of America","address_line1":"¡Una Mas!","address_line2":"548 Lawrence Expressway, Sunnyvale, CA 94085, United States of America","categories":["catering","catering.fast_food"],"details":["details","details.catering","details.contact"],"datasource":{"sourcename":"openstreetmap","attribution":"© OpenStreetMap contributors","license":"Open Database License","url":"https://www.openstreetmap.org/copyright","raw":{"name":"¡Una Mas!","phone":"+1-408-720-8226","osm_id":1870746552,"amenity":"fast_food","cuisine":"mexican","website":"https://www.unamas.com/","osm_type":"n","addr:street":"Lawrence Expressway","addr:housenumber":548}},"website":"https://www.unamas.com/","contact":{"phone":"+1-408-720-8226"},"catering":{"cuisine":"mexican"},"place_id":"5133ee17fdb27f5ec059fc14ef8744b14240f00103f901b853816f0000000092030ac2a1556e61204d617321"},"geometry":{"type":"Point","coordinates":[-121.9952996,37.38490389989781]}},{"type":"Feature","properties":{"name":"Togo's","country":"United States","country_code":"us","state":"California","county":"Santa Clara County","city":"Sunnyvale","postcode":"94085","street":"Lawrence Expressway","housenumber":"540","lon":-121.9953369,"lat":37.3840774,"state_code":"CA","formatted":"Togo's, 540 Lawrence Expressway, Sunnyvale, CA 94085, United States of America","address_line1":"Togo's","address_line2":"540 Lawrence Expressway, Sunnyvale, CA 94085, United States of America","categories":["catering","catering.fast_food","catering.fast_food.sandwich"],"details":["details","details.catering","details.contact","details.facilities"],"datasource":{"sourcename":"openstreetmap","attribution":"© OpenStreetMap contributors","license":"Open Database License","url":"https://www.openstreetmap.org/copyright","raw":{"name":"Togo's","brand":"Togo's","phone":"+1-408-735-1102","osm_id":2607395552,"amenity":"fast_food","cuisine":"sandwich","website":"https://www.togos.com/","osm_type":"n","takeaway":"yes","addr:street":"Lawrence Expressway","brand:wikidata":"Q3530375","addr:housenumber":540}},"website":"https://www.togos.com/","brand":"Togo's","brand_details":{"wikidata":"Q3530375"},"contact":{"phone":"+1-408-735-1102"},"facilities":{"takeaway":true},"catering":{"cuisine":"sandwich"},"place_id":"5122808a99b37f5ec059bfd8bf7229b14240f00103f901e0b2699b00000000920306546f676f2773"},"geometry":{"type":"Point","coordinates":[-121.99533690000001,37.3840773998977]}},{"type":"Feature","properties":{"name":"The Habit Burger Grill","country":"United States","country_code":"us","state":"California","county":"Santa Clara County","city":"Sunnyvale","postcode":"94086","street":"West El Camino Real","housenumber":"146","lon":-122.0330812,"lat":37.3677921,"state_code":"CA","formatted":"The Habit Burger Grill, 146 West El Camino Real, Sunnyvale, CA 94086, United States of America","address_line1":"The Habit Burger Grill","address_line2":"146 West El Camino Real, Sunnyvale, CA 94086, United States of America","categories":["catering","catering.fast_food","catering.fast_food.burger"],"details":["details","details.catering","details.contact","details.facilities"],"datasource":{"sourcename":"openstreetmap","attribution":"© OpenStreetMap contributors","license":"Open Database License","url":"https://www.openstreetmap.org/copyright","raw":{"name":"The Habit Burger Grill","brand":"The Habit Burger Grill","phone":"+1 408 774 9015","osm_id":2625232590,"amenity":"fast_food","cuisine":"burger","website":"https://www.habitburger.com/","alt_name":"Habit Burger Grill","osm_type":"n","takeaway":"yes","short_name":"Habit Burger","addr:street":"West El Camino Real","brand:wikidata":"Q18158741","addr:housenumber":146}},"website":"https://www.habitburger.com/","brand":"The Habit Burger Grill","brand_details":{"wikidata":"Q18158741"},"name_other":{"alt_name":"Habit Burger Grill","short_name":"Habit Burger"},"contact":{"phone":"+1 408 774 9015"},"facilities":{"takeaway":true},"catering":{"cuisine":"burger"},"place_id":"5131079c001e825ec059a863c0cf13af4240f00103f901cede799c0000000092031654686520486162697420427572676572204772696c6c"},"geometry":{"type":"Point","coordinates":[-122.03308119999998,37.36779209989555]}},{"type":"Feature","properties":{"name":"Rubio's","country":"United States","country_code":"us","state":"California","county":"Santa Clara County","city":"Sunnyvale","postcode":"94087","street":"East El Camino Real","housenumber":"108","lon":-122.0319851,"lat":37.366907,"state_code":"CA","formatted":"Rubio's, 108 East El Camino Real, Sunnyvale, CA 94087, United States of America","address_line1":"Rubio's","address_line2":"108 East El Camino Real, Sunnyvale, CA 94087, United States of America","categories":["catering","catering.fast_food"],"details":["details","details.catering","details.contact","details.facilities"],"datasource":{"sourcename":"openstreetmap","attribution":"© OpenStreetMap contributors","license":"Open Database License","url":"https://www.openstreetmap.org/copyright","raw":{"name":"Rubio's","brand":"Rubio's","phone":"+1 408 245 0014","osm_id":2686080327,"amenity":"fast_food","cuisine":"mexican","website":"https://www.rubios.com/","osm_type":"n","takeaway":"yes","addr:street":"East El Camino Real","addr:postcode":94087,"official_name":"Rubio's Coastal Grill","brand:wikidata":"Q7376154","outdoor_seating":"yes","addr:housenumber":108}},"website":"https://www.rubios.com/","brand":"Rubio's","brand_details":{"wikidata":"Q7376154"},"name_other":{"official_name":"Rubio's Coastal Grill"},"contact":{"phone":"+1 408 245 0014"},"facilities":{"outdoor_seating":true,"takeaway":true},"catering":{"cuisine":"mexican"},"place_id":"51639d3b0b0c825ec059b79cfecef6ae4240f00103f90147551aa000000000920307527562696f2773"},"geometry":{"type":"Point","coordinates":[-122.03198509999997,37.36690699989543]}},{"type":"Feature","properties":{"name":"Lee's Sandwiches","country":"United States","country_code":"us","state":"California","county":"Santa Clara County","city":"Sunnyvale","postcode":"94807","street":"West El Camino Real","housenumber":"939","lon":-122.045511,"lat":37.3716242,"state_code":"CA","formatted":"Lee's Sandwiches, 939 West El Camino Real, Sunnyvale, CA 94807, United States of America","address_line1":"Lee's Sandwiches","address_line2":"939 West El Camino Real, Sunnyvale, CA 94807, United States of America","categories":["catering","catering.fast_food","catering.fast_food.sandwich"],"details":["details","details.catering","details.contact","details.facilities"],"datasource":{"sourcename":"openstreetmap","attribution":"© OpenStreetMap contributors","license":"Open Database License","url":"https://www.openstreetmap.org/copyright","raw":{"name":"Lee's Sandwiches","brand":"Lee's Sandwiches","phone":"+1 408 774 0595","branch":"Sunnyvale","osm_id":3066013777,"amenity":"fast_food","cuisine":"vietnamese;sandwich","website":"https://www.leesandwiches.com/main.php?act=storedetail&catid=25&idstore=21","osm_type":"n","takeaway":"yes","addr:unit":108,"addr:street":"West El Camino Real","brand:wikidata":"Q6512823","addr:housenumber":939}},"website":"https://www.leesandwiches.com/main.php?act=storedetail&catid=25&idstore=21","brand":"Lee's Sandwiches","brand_details":{"wikidata":"Q6512823"},"branch":"Sunnyvale","contact":{"phone":"+1 408 774 0595"},"facilities":{"takeaway":true},"catering":{"cuisine":"vietnamese;sandwich"},"place_id":"51ee26f8a6e9825ec059567abc6191af4240f00103f90151a8bfb6000000009203104c656527732053616e64776963686573"},"geometry":{"type":"Point","coordinates":[-122.045511,37.37162419989606]}},{"type":"Feature","properties":{"name":"zpizza","country":"United States","country_code":"us","state":"California","county":"Santa Clara County","city":"Sunnyvale","postcode":"94089","street":"North Fair Oaks Avenue","housenumber":"1190","lon":-122.009572,"lat":37.4037948,"state_code":"CA","formatted":"zpizza, 1190 North Fair Oaks Avenue, Sunnyvale, CA 94089, United States of America","address_line1":"zpizza","address_line2":"1190 North Fair Oaks Avenue, Sunnyvale, CA 94089, United States of America","categories":["catering","catering.fast_food","catering.fast_food.pizza"],"details":["details","details.catering","details.contact","details.facilities"],"datasource":{"sourcename":"openstreetmap","attribution":"© OpenStreetMap contributors","license":"Open Database License","url":"https://www.openstreetmap.org/copyright","raw":{"name":"zpizza","level":0,"phone":"1-408-746-5641","osm_id":4398473589,"amenity":"fast_food","cuisine":"pizza","name:en":"zpizza","osm_type":"n","takeaway":"yes","addr:city":"Sunnyvale","addr:state":"CA","addr:street":"North Fair Oaks Avenue","addr:postcode":94089,"drive_through":"no","opening_hours":"11:00-22:00","addr:housenumber":1190}},"opening_hours":"11:00-22:00","name_international":{"en":"zpizza"},"contact":{"phone":"1-408-746-5641"},"facilities":{"takeaway":true},"catering":{"cuisine":"pizza"},"place_id":"5143bde0d39c805ec059f0ee498cafb34240f00103f90175612b06010000009203067a70697a7a61"},"geometry":{"type":"Point","coordinates":[-122.00957199999998,37.40379479990031]}},{"type":"Feature","properties":{"name":"Pav Bhaji And More","country":"United States","country_code":"us","state":"California","county":"Santa Clara County","city":"Sunnyvale","postcode":"94807","street":"South Bernardo Avenue","lon":-122.0567983,"lat":37.3705449,"state_code":"CA","formatted":"Pav Bhaji And More, South Bernardo Avenue, Sunnyvale, CA 94807, United States of America","address_line1":"Pav Bhaji And More","address_line2":"South Bernardo Avenue, Sunnyvale, CA 94807, United States of America","categories":["catering","catering.fast_food","wheelchair","wheelchair.yes"],"details":["details","details.catering","details.facilities"],"datasource":{"sourcename":"openstreetmap","attribution":"© OpenStreetMap contributors","license":"Open Database License","url":"https://www.openstreetmap.org/copyright","raw":{"name":"Pav Bhaji And More","osm_id":9556741656,"amenity":"fast_food","cuisine":"indian","website":"https://pavbhajiandmore.com/","osm_type":"n","takeaway":"only","wheelchair":"yes","opening_hours":"Mo,We-Su 12:00-21:00","cash_withdrawal:purchase_minimum":"no"}},"website":"https://pavbhajiandmore.com/","opening_hours":"Mo,We-Su 12:00-21:00","facilities":{"wheelchair":true,"takeaway":true},"catering":{"cuisine":"indian"},"place_id":"51fa3d5695a2835ec0595360e9036eaf4240f00103f901184ea03902000000920312506176204268616a6920416e64204d6f7265"},"geometry":{"type":"Point","coordinates":[-122.0567983,37.37054489989591]}},{"type":"Feature","properties":{"name":"Carl's Jr.","country":"United States","country_code":"us","state":"California","county":"Santa Clara County","city":"Sunnyvale","postcode":"95086","street":"Henderson Avenue","lon":-122.00475597515407,"lat":37.3526725,"state_code":"CA","formatted":"Carl's Jr., Henderson Avenue, Sunnyvale, CA 95086, United States of America","address_line1":"Carl's Jr.","address_line2":"Henderson Avenue, Sunnyvale, CA 95086, United States of America","categories":["building","building.catering","building.commercial","catering","catering.fast_food","catering.fast_food.burger"],"details":["details","details.catering","details.facilities"],"datasource":{"sourcename":"openstreetmap","attribution":"© OpenStreetMap contributors","license":"Open Database License","url":"https://www.openstreetmap.org/copyright","raw":{"name":"Carl's Jr.","brand":"Carl's Jr.","osm_id":37892700,"amenity":"fast_food","cuisine":"burger","website":"https://locations.carlsjr.com/ca/sunnyvale/1051-e-el-camino-real","building":"retail","osm_type":"w","takeaway":"yes","brand:wikidata":"Q1043486"}},"website":"https://locations.carlsjr.com/ca/sunnyvale/1051-e-el-camino-real","brand":"Carl's Jr.","brand_details":{"wikidata":"Q1043486"},"facilities":{"takeaway":true},"catering":{"cuisine":"burger"},"building":{"type":"retail"},"place_id":"517e2ce9cd4d805ec059c29a65e723ad4240f00102f9015c3242020000000092030a4361726c2773204a722e"},"geometry":{"type":"Point","coordinates":[-122.00474879999999,37.352658199893554]}},{"type":"Feature","properties":{"name":"El Pollo Loco","country":"United States","country_code":"us","state":"California","county":"Santa Clara County","city":"Sunnyvale","postcode":"94087","suburb":"Civic Square Shopping Center","street":"West El Camino Real","housenumber":"996","lon":-122.04831127056761,"lat":37.3714631,"state_code":"CA","formatted":"El Pollo Loco, 996 West El Camino Real, Sunnyvale, CA 94087, United States of America","address_line1":"El Pollo Loco","address_line2":"996 West El Camino Real, Sunnyvale, CA 94087, United States of America","categories":["building","building.catering","catering","catering.fast_food"],"details":["details","details.catering","details.contact","details.facilities"],"datasource":{"sourcename":"openstreetmap","attribution":"© OpenStreetMap contributors","license":"Open Database License","url":"https://www.openstreetmap.org/copyright","raw":{"name":"El Pollo Loco","brand":"El Pollo Loco","phone":"+1 408 732 5002","osm_id":45757964,"amenity":"fast_food","cuisine":"mexican","building":"yes","osm_type":"w","takeaway":"yes","addr:city":"Sunnyvale","addr:state":"CA","addr:street":"West El Camino Real","addr:postcode":94087,"brand:wikidata":"Q2353849","addr:housenumber":996}},"brand":"El Pollo Loco","brand_details":{"wikidata":"Q2353849"},"contact":{"phone":"+1 408 732 5002"},"facilities":{"takeaway":true},"catering":{"cuisine":"mexican"},"place_id":"516ec7278817835ec059b5dc541a8caf4240f00102f9010c36ba020000000092030d456c20506f6c6c6f204c6f636f"},"geometry":{"type":"Point","coordinates":[-122.04831127056761,37.37146309989604]}}]}