{"type":"FeatureCollection","features":[{"type":"Feature","properties":{"name":"Saint John’s Bar & Grill","country":"United States","country_code":"us","state":"California","county":"Santa Clara County","city":"Sunnyvale","postcode":"94085","street":"Lawrence Expressway","housenumber":"510","lon":-121.9953784,"lat":37.382474,"state_code":"CA","formatted":"Saint John’s Bar & Grill, 510 Lawrence Expressway, Sunnyvale, CA 94085, United States of America","address_line1":"Saint John’s Bar & Grill","address_line2":"510 Lawrence Expressway, Sunnyvale, CA 94085, United States of America","categories":["catering","catering.restaurant","catering.restaurant.burger"],"details":["details","details.catering","details.contact","details.facilities","details.wiki_and_media"],"datasource":{"sourcename":"openstreetmap","attribution":"© OpenStreetMap contributors","license":"Open Database License","url":"https://www.openstreetmap.org/copyright","raw":{"name":"Saint John’s Bar & Grill","phone":"+1 408 7388515","osm_id":988281448,"amenity":"restaurant","cuisine":"burger","website":"https://stjohnsgrill.com/","osm_type":"n","takeaway":"yes","wikidata":"Q64166165","addr:unit":110,"drink:beer":"yes","addr:street":"Lawrence Expressway","contact:yelp":"https://www.yelp.com/biz/st-johns-bar-and-grill-sunnyvale-2","website:menu":"https://stjohnsgrill.com/menu/","opening_hours":"Su,Mo off; Tu-Th 11:00-21:00; Fr 11:00-22:00; Sa 11:30-21:00","outdoor_seating":"yes","addr:housenumber":510,"contact:facebook":"stjohnsbarandgrill","opening_hours:url":"https://stjohnsgrill.com/"}},"website":"https://stjohnsgrill.com/","opening_hours":"Su,Mo off; Tu-Th 11:00-21:00; Fr 11:00-22:00; Sa 11:30-21:00","contact":{"phone":"+1 408 7388515"},"facilities":{"outdoor_seating":true,"takeaway":true},"wiki_and_media":{"wikidata":"Q64166165"},"catering":{"cuisine":"burger"},"place_id":"5145c99a47b47f5ec059a59074e8f4b04240f00103f90168fae73a0000000092031a5361696e74204a6f686ee2809973204261722026204772696c6c"},"geometry":{"type":"Point","coordinates":[-121.9953784,37.38247399989749]}},{"type":"Feature","properties":{"name":"Gumba's Italian Foods Pizzaria","country":"United States","country_code":"us","state":"California","county":"Santa Clara County","city":"Sunnyvale","postcode":"94086","street":"South Murphy Avenue","housenumber":"176","lon":-122.02996731420114,"lat":37.37638425,"state_code":"CA","formatted":"Gumba's Italian Foods Pizzaria, 176 South Murphy Avenue, Sunnyvale, CA 94086, United States of America","address_line1":"Gumba's Italian Foods Pizzaria","address_line2":"176 South Murphy Avenue, Sunnyvale, CA 94086, United States of America","categories":["building","building.catering","catering","catering.restaurant","catering.restaurant.pizza","vegetarian"],"details":["details","details.catering","details.contact","details.facilities"],"datasource":{"sourcename":"openstreetmap","attribution":"© OpenStreetMap contributors","license":"Open Database License","url":"https://www.openstreetmap.org/copyright","raw":{"name":"Gumba's Italian Foods Pizzaria","phone":"+1 408 737 8384","osm_id":30908072,"amenity":"restaurant","cuisine":"pizza","website":"https://www.gumbasitalianrestaurant.com/","building":"yes","delivery":"yes","osm_type":"w","takeaway":"yes","addr:city":"Sunnyvale","addr:state":"CA","addr:street":"South Murphy Avenue","addr:country":"US","addr:postcode":94086,"opening_hours":"Sa-Su 08:00-21:30; Mo-Fr 11:00-21:00","diet:vegetarian":"yes","addr:housenumber":176}},"website":"https://www.gumbasitalianrestaurant.com/","opening_hours":"Sa-Su 08:00-21:30; Mo-Fr 11:00-21:00","contact":{"phone":"+1 408 737 8384"},"facilities":{"takeaway":true,"delivery":true},"catering":{"cuisine":"pizza","diet":{"vegetarian":true}},"place_id":"51579c06fcea815ec0599304ee5b2db04240f00102f901a89ed7010000000092031e47756d62612773204974616c69616e20466f6f64732050697a7a61726961"},"geometry":{"type":"Point","coordinates":[-122.02996731420113,37.37638424989668]}},{"type":"Feature","properties":{"name":"Seto Ramen","country":"United States","country_code":"us","state":"California","county":"Santa Clara County","city":"Sunnyvale","postcode":"94085","street":"West Maude Avenue","housenumber":"107","lon":-122.02604629259841,"lat":37.38844545,"state_code":"CA","formatted":"Seto Ramen, 107 West Maude Avenue, Sunnyvale, CA 94085, United States of America","address_line1":"Seto Ramen","address_line2":"107 West Maude Avenue, Sunnyvale, CA 94085, United States of America","categories":["building","building.catering","catering","catering.restaurant","catering.restaurant.ramen"],"details":["details","details.catering","details.contact"],"datasource":{"sourcename":"openstreetmap","attribution":"© OpenStreetMap contributors","license":"Open Database License","url":"https://www.openstreetmap.org/copyright","raw":{"name":"Seto Ramen","phone":"(408) 735-1772","osm_id":389148838,"amenity":"restaurant","cuisine":"ramen","website":"http://setoramen.menu11.com","building":"yes","osm_type":"w","addr:city":"Sunnyvale","addr:state":"CA","addr:street":"West Maude Avenue","addr:postcode":94085,"opening_hours":"Mo-Sa 11:00-13:00,17:00-20:00; Su 16:00-20:00","addr:housenumber":107}},"website":"http://setoramen.menu11.com","opening_hours":"Mo-Sa 11:00-13:00,17:00-20:00; Su 16:00-20:00","contact":{"phone":"(408) 735-1772"},"catering":{"cuisine":"ramen"},"place_id":"5118b911beaa815ec059eccb9b94b8b14240f00102f901a6f031170000000092030a5365746f2052616d656e"},"geometry":{"type":"Point","coordinates":[-122.02604629259838,37.388445449898285]}},{"type":"Feature","properties":{"name":"Lados","country":"United States","country_code":"us","state":"California","county":"Santa Clara County","city":"Sunnyvale","postcode":"94089","street":"Plaza Drive","housenumber":"115","lon":-122.02117895727,"lat":37.4029082,"state_code":"CA","formatted":"Lados, 115 Plaza Drive, Sunnyvale, CA 94089, United States of America","address_line1":"Lados","address_line2":"115 Plaza Drive, Sunnyvale, CA 94089, United States of America","categories":["building","building.catering","catering","catering.restaurant","halal","vegan","vegetarian"],"details":["details","details.catering","details.contact"],"datasource":{"sourcename":"openstreetmap","attribution":"© OpenStreetMap contributors","license":"Open Database License","url":"https://www.openstreetmap.org/copyright","raw":{"name":"Lados","email":"hello@ladosfood.com","phone":"+1 650 290 1234","osm_id":390276948,"amenity":"restaurant","cuisine":"pakistani;indian;american","website":"https://ladosfood.com","building":"yes","osm_type":"w","addr:city":"Sunnyvale","addr:state":"CA","diet:halal":"yes","diet:vegan":"yes","addr:street":"Plaza Drive","contact:yelp":"https://www.yelp.com/biz/lados-sunnyvale-5","addr:postcode":94089,"opening_hours":"Tu-Fr 11:00-14:00,16:00-21:00; Sa 12:00-21:30; Su 12:00-21:00","contact:twitter":"https://twitter.com/ladosfood","diet:vegetarian":"yes","addr:housenumber":115,"contact:facebook":"https://facebook.com/ladosfood","contact:instagram":"https://instagram.com/ladosfood"}},"website":"https://ladosfood.com","opening_hours":"Tu-Fr 11:00-14:00,16:00-21:00; Sa 12:00-21:30; Su 12:00-21:00","contact":{"phone":"+1 650 290 1234","email":"hello@ladosfood.com"},"catering":{"cuisine":"pakistani;indian;american","diet":{"halal":true,"vegan":true,"vegetarian":true}},"place_id":"51a235fcfe5a815ec05948eef27e92b34240f00102f90154274317000000009203054c61646f73"},"geometry":{"type":"Point","coordinates":[-122.02117895727,37.402908199900196]}},{"type":"Feature","properties":{"name":"Madras Café","country":"United States","country_code":"us","state":"California","county":"Santa Clara County","city":"Sunnyvale","postcode":"94087","street":"West El Camino Real","housenumber":"1177","lon":-122.054947,"lat":37.3742826,"state_code":"CA","formatted":"Madras Cafe, 1177 West El Camino Real, Sunnyvale, CA 94087, United States of America","address_line1":"Madras Cafe","address_line2":"1177 West El Camino Real, Sunnyvale, CA 94087, United States of America","categories":["catering","catering.restaurant","catering.restaurant.indian","vegetarian","wheelchair","wheelchair.limited"],"details":["details","details.catering","details.contact","details.facilities"],"datasource":{"sourcename":"openstreetmap","attribution":"© OpenStreetMap contributors","license":"Open Database License","url":"https://www.openstreetmap.org/copyright","raw":{"name":"Madras Café","phone":"+1 408-737-2323","osm_id":608516963,"amenity":"restaurant","cuisine":"indian","name:en":"Madras Cafe","website":"http://www.madrascafe.us","osm_type":"n","addr:city":"Sunnyvale","addr:state":"CA","wheelchair":"limited","addr:street":"West El Camino Real","addr:postcode":94087,"opening_hours":"Tu-Fr 08:30-14:30,17:30-22:00; Sa-Su 08:30-22:00","diet:vegetarian":"yes","addr:housenumber":1177}},"website":"http://www.madrascafe.us","opening_hours":"Tu-Fr 08:30-14:30,17:30-22:00; Sa-Su 08:30-22:00","name_international":{"en":"Madras Cafe"},"contact":{"phone":"+1 408-737-2323"},"facilities":{"wheelchair":true,"wheelchair_details":{"condition":"limited"}},"catering":{"cuisine":"indian","diet":{"vegetarian":true}},"place_id":"51d9006c4084835ec0592b02037ee8af4240f00103f901633b45240000000092030c4d616472617320436166c3a9"},"geometry":{"type":"Point","coordinates":[-122.05494699999998,37.37428259989641]}},{"type":"Feature","properties":{"name":"Merit Vegetarian Cuisine","country":"United States","country_code":"us","state":"California","county":"Santa Clara County","city":"Sunnyvale","postcode":"94085","street":"Lawrence Expressway","housenumber":"548","lon":-121.9951011,"lat":37.3848954,"state_code":"CA","formatted":"Merit Vegetarian Cuisine, 548 Lawrence Expressway, Sunnyvale, CA 94085, United States of America","address_line1":"Merit Vegetarian Cuisine","address_line2":"548 Lawrence Expressway, Sunnyvale, CA 94085, United States of America","categories":["catering","catering.restaurant","catering.restaurant.asian","vegan","vegan.only"],"details":["details","details.catering","details.contact"],"datasource":{"sourcename":"openstreetmap","attribution":"© OpenStreetMap contributors","license":"Open Database License","url":"https://www.openstreetmap.org/copyright","raw":{"name":"Merit Vegetarian Cuisine","phone":"+1-408-245-8988","osm_id":1319639566,"amenity":"restaurant","cuisine":"asian","website":"https://www.meritvegetarian.com/","osm_type":"n","addr:city":"Sunnyvale","diet:vegan":"only","addr:street":"Lawrence Expressway","addr:postcode":94085,"opening_hours":"PH off; Mo-Su 11:30-15:00,04:30-20:00","addr:housenumber":548}},"website":"https://www.meritvegetarian.com/","opening_hours":"PH off; Mo-Su 11:30-15:00,04:30-20:00","contact":{"phone":"+1-408-245-8988"},"catering":{"cuisine":"asian","diet":{"vegan":true}},"place_id":"51ab2d86bcaf7f5ec0599178a14044b14240f00103f9010e1aa84e000000009203184d65726974205665676574617269616e2043756973696e65"},"geometry":{"type":"Point","coordinates":[-121.99510109999999,37.38489539989781]}},{"type":"Feature","properties":{"name":"The Old Siam","country":"United States","country_code":"us","state":"California","county":"Santa Clara County","city":"Sunnyvale","postcode":"94087","street":"West El Camino Real","housenumber":"1111","lon":-122.053623,"lat":37.3739263,"state_code":"CA","formatted":"The Old Siam, 1111 West El Camino Real, Sunnyvale, CA 94087, United States of America","address_line1":"The Old Siam","address_line2":"1111 West El Camino Real, Sunnyvale, CA 94087, United States of America","categories":["catering","catering.restaurant","catering.restaurant.thai"],"details":["details","details.catering","details.contact","details.payment"],"datasource":{"sourcename":"openstreetmap","attribution":"© OpenStreetMap contributors","license":"Open Database License","url":"https://www.openstreetmap.org/copyright","raw":{"name":"The Old Siam","phone":"+1-408-530-8552","osm_id":1572294525,"amenity":"restaurant","cuisine":"thai","website":"https://theoldsiam.net","osm_type":"n","addr:city":"Sunnyvale","addr:unit":137,"addr:state":"CA","addr:street":"West El Camino Real","payment:cash":"yes","payment:visa":"yes","addr:postcode":94087,"opening_hours":"Mo, We-Fr 11:00-20:30; Sa-Su 12:00-20:30","addr:housenumber":1111,"payment:mastercard":"yes","payment:discover_card":"yes","payment:american_express":"yes"}},"website":"https://theoldsiam.net","opening_hours":"Mo, We-Fr 11:00-20:30; Sa-Su 12:00-20:30","contact":{"phone":"+1-408-530-8552"},"payment_options":{"cash":true,"visa":true,"mastercard":true,"discover_card":true,"american_express":true},"catering":{"cuisine":"thai"},"place_id":"510ed4298f6e835ec059a79526d1dcaf4240f00103f9017d4fb75d0000000092030c546865204f6c64205369616d"},"geometry":{"type":"Point","coordinates":[-122.05362299999999,37.37392629989636]}},{"type":"Feature","properties":{"name":"Pizza My Heart","country":"United States","country_code":"us","state":"California","county":"Santa Clara County","city":"Sunnyvale","postcode":"94087","street":"East El Camino Real","housenumber":"110","lon":-122.0319857,"lat":37.3668062,"state_code":"CA","formatted":"Pizza My Heart, 110 East El Camino Real, Sunnyvale, CA 94087, United States of America","address_line1":"Pizza My Heart","address_line2":"110 East El Camino Real, Sunnyvale, CA 94087, United States of America","categories":["catering","catering.restaurant","catering.restaurant.pizza"],"details":["details","details.catering","details.contact","details.facilities"],"datasource":{"sourcename":"openstreetmap","attribution":"© OpenStreetMap contributors","license":"Open Database License","url":"https://www.openstreetmap.org/copyright","raw":{"name":"Pizza My Heart","phone":"+1 408 245 4100","osm_id":1670752580,"amenity":"restaurant","cuisine":"pizza","website":"https://www.pizzamyheart.com/Pizza_My_Heart_Home.html","osm_type":"n","addr:street":"East El Camino Real","addr:postcode":94087,"opening_hours":"Mo-Su 11:00-22:00","outdoor_seating":"yes","addr:housenumber":110}},"website":"https://www.pizzamyheart.com/Pizza_My_Heart_Home.html","opening_hours":"Mo-Su 11:00-22:00","contact":{"phone":"+1 408 245 4100"},"facilities":{"outdoor_seating":true},"catering":{"cuisine":"pizza"},"place_id":"5125dcbf0d0c825ec059ac426c81f3ae4240f00103f90144a995630000000092030e50697a7a61204d79204865617274"},"geometry":{"type":"Point","coordinates":[-122.03198570000002,37.36680619989542]}},{"type":"Feature","properties":{"name":"Chennai Buhari Authentic Indian Food","country":"United States","country_code":"us","state":"California","county":"Santa Clara County","city":"Sunnyvale","postcode":"94087","suburb":"Civic Square Shopping Center","street":"West El Camino Real","housenumber":"808","lon":-122.041573,"lat":37.3691475,"state_code":"CA","formatted":"Chennai Buhari Authentic Indian Food, 808 West El Camino Real, Sunnyvale, CA 94087, United States of America","address_line1":"Chennai Buhari Authentic Indian Food","address_line2":"808 West El Camino Real, Sunnyvale, CA 94087, United States of America","categories":["catering","catering.restaurant","catering.restaurant.indian"],"details":["details","details.catering","details.contact","details.facilities"],"datasource":{"sourcename":"openstreetmap","attribution":"© OpenStreetMap contributors","license":"Open Database License","url":"https://www.openstreetmap.org/copyright","raw":{"name":"Chennai Buhari Authentic Indian Food","email":"info@chennaibuhari.com","phone":"+1-408-685-2039","osm_id":2225535975,"amenity":"restaurant","cuisine":"indian","website":"https://chennaibuhari.com/","osm_type":"n","addr:city":"Sunnyvale","addr:state":"CA","addr:street":"West El Camino Real","addr:postcode":94087,"opening_hours":"Mo,We-Fr 11:30-14:30,17:30-22:00; Sa-Su 11:30-15:00,17:30-22:00","outdoor_seating":"no","addr:housenumber":808}},"website":"https://chennaibuhari.com/","opening_hours":"Mo,We-Fr 11:30-14:30,17:30-22:00; Sa-Su 11:30-15:00,17:30-22:00","contact":{"phone":"+1-408-685-2039","email":"info@chennaibuhari.com"},"facilities":{"outdoor_seating":false},"catering":{"cuisine":"indian"},"place_id":"5162d9cc21a9825ec059e6b9ab3940af4240f00103f901e7fba684000000009203244368656e6e6169204275686172692041757468656e74696320496e6469616e20466f6f64"},"geometry":{"type":"Point","coordinates":[-122.041573,37.36914749989573]}},{"type":"Feature","properties":{"name":"Round Table Pizza","country":"United States","country_code":"us","state":"California","county":"Santa Clara County","city":"Sunnyvale","postcode":"94085","street":"North Mary Avenue","housenumber":"415","lon":-122.04215,"lat":37.3901064,"state_code":"CA","formatted":"Round Table Pizza, 415 North Mary Avenue, Sunnyvale, CA 94085, United States of America","address_line1":"Round Table Pizza","address_line2":"415 North Mary Avenue, Sunnyvale, CA 94085, United States of America","categories":["catering","catering.restaurant","catering.restaurant.pizza","wheelchair","wheelchair.yes"],"details":["details","details.catering","details.contact","details.facilities"],"datasource":{"sourcename":"openstreetmap","attribution":"© OpenStreetMap contributors","license":"Open Database License","url":"https://www.openstreetmap.org/copyright","raw":{"name":"Round Table Pizza","brand":"Round Table Pizza","phone":"+14084819383","stars":4,"osm_id":2453453619,"amenity":"restaurant","cuisine":"pizza","website":"https://www.thebibimbowl.com/","osm_type":"n","addr:city":"Sunnyvale","addr:unit":107,"wheelchair":"yes","addr:street":"North Mary Avenue","addr:postcode":94085,"opening_hours":"Mo-Fr 08:30-20:00; Sa,Su 08:00-15:00; PH off","brand:wikidata":"Q7371139","addr:housenumber":415}},"website":"https://www.thebibimbowl.com/","opening_hours":"Mo-Fr 08:30-20:00; Sa,Su 08:00-15:00; PH off","brand":"Round Table Pizza","brand_details":{"wikidata":"Q7371139"},"contact":{"phone":"+14084819383"},"facilities":{"wheelchair":true},"catering":{"stars":4,"cuisine":"pizza"},"place_id":"51b0e1e995b2825ec0591dc3aa01efb14240f00103f90133bb3c9200000000920311526f756e64205461626c652050697a7a61"},"geometry":{"type":"Point","coordinates":[-122.04214999999999,37.39010639989849]}},{"type":"Feature","properties":{"name":"Inchin's Bamboo Garden","country":"United States","country_code":"us","state":"California","county":"Santa Clara County","city":"Sunnyvale","postcode":"94087","street":"West Washington Avenue","housenumber":"151","lon":-122.031114,"lat":37.3762829,"state_code":"CA","formatted":"Inchin's Bamboo Garden, 151 West Washington Avenue, Sunnyvale, CA 94087, United States of America","address_line1":"Inchin's Bamboo Garden","address_line2":"151 West Washington Avenue, Sunnyvale, CA 94087, United States of America","categories":["catering","catering.restaurant"],"details":["details","details.contact"],"datasource":{"sourcename":"openstreetmap","attribution":"© OpenStreetMap contributors","license":"Open Database License","url":"https://www.openstreetmap.org/copyright","raw":{"name":"Inchin's Bamboo Garden","phone":"+1-408-481-9350","osm_id":2472520689,"amenity":"restaurant","website":"https://www.bamboo-gardens.com/","osm_type":"n","addr:city":"Sunnyvale","addr:state":"CA","addr:street":"West Washington Avenue","addr:country":"US","addr:postcode":94087,"opening_hours":"Mo-Th 11:30-14:30,17:00-22:00; Fr 11:30-14:30,17:00-22:30; Sa 12:00-22:00; Su 12:00-21:00","addr:housenumber":151}},"website":"https://www.bamboo-gardens.com/","opening_hours":"Mo-Th 11:30-14:30,17:00-22:00; Fr 11:30-14:30,17:00-22:30; Sa 12:00-22:00; Su 12:00-21:00","contact":{"phone":"+1-408-481-9350"},"place_id":"51a71c93c5fd815ec059d48cbe092ab04240f00103f901f1ab5f9300000000920316496e6368696e27732042616d626f6f2047617264656e"},"geometry":{"type":"Point","coordinates":[-122.03111399999999,37.376282899896665]}},{"type":"Feature","properties":{"name":"Rokko","country":"United States","country_code":"us","state":"California","county":"Santa Clara County","city":"Sunnyvale","postcode":"94086","street":"South Frances Street","housenumber":"190","lon":-122.031225,"lat":37.3765433,"state_code":"CA","formatted":"Rokko, 190 South Frances Street, Sunnyvale, CA 94086, United States of America","address_line1":"Rokko","address_line2":"190 South Frances Street, Sunnyvale, CA 94086, United States of America","categories":["catering","catering.restaurant","catering.restaurant.japanese"],"details":["details","details.catering","details.contact"],"datasource":{"sourcename":"openstreetmap","attribution":"© OpenStreetMap contributors","license":"Open Database License","url":"https://www.openstreetmap.org/copyright","raw":{"name":"Rokko","email":"rokkorestaurant@gmail.com","phone":"(408) 773-8225","osm_id":2472520693,"amenity":"restaurant","cuisine":"japanese","website":"https://www.rokkorestaurant.com/","osm_type":"n","addr:city":"Sunnyvale","addr:state":"CA","addr:street":"South Frances Street","website:menu":"https://www.rokkorestaurant.com/menus","addr:postcode":94086,"opening_hours":"Tu-Sa 11:30-13:30,05:30-20:30; Su 17:30-20:30","addr:housenumber":190}},"website":"https://www.rokkorestaurant.com/","opening_hours":"Tu-Sa 11:30-13:30,05:30-20:30; Su 17:30-20:30","contact":{"phone":"(408) 773-8225","email":"rokkorestaurant@gmail.com"},"catering":{"cuisine":"japanese"},"place_id":"5154742497ff815ec059c94a239232b04240f00103f901f5ab5f9300000000920305526f6b6b6f"},"geometry":{"type":"Point","coordinates":[-122.031225,37.3765432998967]}},{"type":"Feature","properties":{"name":"Tanto","country":"United States","country_code":"us","state":"California","county":"Santa Clara County","city":"Sunnyvale","postcode":"94087","street":"East El Camino Real","housenumber":"1063","lon":-122.0039795,"lat":37.3525892,"state_code":"CA","formatted":"Tanto, 1063 East El Camino Real, Sunnyvale, CA 94087, United States of America","address_line1":"Tanto","address_line2":"1063 East El Camino Real, Sunnyvale, CA 94087, United States of America","categories":["catering","catering.restaurant","catering.restaurant.japanese"],"details":["details","details.catering","details.contact"],"datasource":{"sourcename":"openstreetmap","attribution":"© OpenStreetMap contributors","license":"Open Database License","url":"https://www.openstreetmap.org/copyright","raw":{"name":"Tanto","phone":"+1 408 244 7311","osm_id":2879035050,"amenity":"restaurant","cuisine":"japanese","website":"https://tantoizakayasunnyvale.com/","osm_type":"n","addr:city":"Sunnyvale","addr:street":"East El Camino Real","addr:postcode":94087,"opening_hours":"Tu-Fr 11:30-13:30,18:00-22:30; Sa-Su 18:00-21:00","addr:housenumber":1063}},"website":"https://tantoizakayasunnyvale.com/","opening_hours":"Tu-Fr 11:30-13:30,18:00-22:30; Sa-Su 18:00-21:00","contact":{"phone":"+1 408 244 7311"},"catering":{"cuisine":"japanese"},"place_id":"51ad963b3341805ec059973b95a421ad4240f00103f901aa969aab0000000092030554616e746f"},"geometry":{"type":"Point","coordinates":[-122.00397949999997,37.352589199893536]}},{"type":"Feature","properties":{"name":"Tao Tao","country":"United States","country_code":"us","state":"California","county":"Santa Clara County","city":"Sunnyvale","postcode":"94086","street":"South Murphy Avenue","housenumber":"175","lon":-122.030426,"lat":37.3765602,"state_code":"CA","formatted":"Tao Tao, 175 South Murphy Avenue, Sunnyvale, CA 94086, United States of America","address_line1":"Tao Tao","address_line2":"175 South Murphy Avenue, Sunnyvale, CA 94086, United States of America","categories":["catering","catering.restaurant","catering.restaurant.chinese"],"details":["details","details.catering","details.contact"],"datasource":{"sourcename":"openstreetmap","attribution":"© OpenStreetMap contributors","license":"Open Database License","url":"https://www.openstreetmap.org/copyright","raw":{"name":"Tao Tao","phone":"(408) 736-3731","osm_id":3397518885,"amenity":"restaurant","cuisine":"chinese","website":"https://taotao.carry-out.com","osm_type":"n","addr:city":"Sunnyvale","addr:state":"CA","addr:street":"South Murphy Avenue","addr:postcode":94086,"opening_hours":"Tu-Th 11:30-14:00,15:30-20:30; Fr 11:30-14:00,15:30-21:00; Sa 15:00-21:00; Su 15:00-20:00; Mo off","addr:housenumber":175}},"website":"https://taotao.carry-out.com","opening_hours":"Tu-Th 11:30-14:00,15:30-20:30; Fr 11:30-14:00,15:30-21:00; Sa 15:00-21:00; Su 15:00-20:00; Mo off","contact":{"phone":"(408) 736-3731"},"catering":{"cuisine":"chinese"},"place_id":"51adbce47ff2815ec0590cc4e71f33b04240f00103f901250682ca0000000092030754616f2054616f"},"geometry":{"type":"Point","coordinates":[-122.03042599999999,37.376560199896716]}},{"type":"Feature","properties":{"name":"Bonchon Chicken","country":"United States","country_code":"us","state":"California","county":"Santa Clara County","city":"Sunnyvale","postcode":"94086","street":"East El Camino Real","housenumber":"572","lon":-122.0272279,"lat":37.3623638,"state_code":"CA","formatted":"Bonchon Chicken, 572 East El Camino Real, Sunnyvale, CA 94086, United States of America","address_line1":"Bonchon Chicken","address_line2":"572 East El Camino Real, Sunnyvale, CA 94086, United States of America","categories":["catering","catering.restaurant","catering.restaurant.korean"],"details":["details","details.catering","details.contact"],"datasource":{"sourcename":"openstreetmap","attribution":"© OpenStreetMap contributors","license":"Open Database License","url":"https://www.openstreetmap.org/copyright","raw":{"name":"Bonchon Chicken","phone":"+1-408-720-8689","osm_id":4370458049,"amenity":"restaurant","cuisine":"korean;fried_chicken","name:en":"Bonchon Chicken","name:ko":"본촌치킨","website":"https://bonchon.com/korean-fried-chicken-sunnyvale-ca/","osm_type":"n","addr:street":"East El Camino Real","description":"Korean fried chicken restaurant","opening_hours":"We, Th 11:30-22:00; Fr, Sa 11:30-22:30; Mo, Su 11:30-21:00","addr:housenumber":572}},"website":"https://bonchon.com/korean-fried-chicken-sunnyvale-ca/","opening_hours":"We, Th 11:30-22:00; Fr, Sa 11:30-22:30; Mo, Su 11:30-21:00","description":"Korean fried chicken restaurant","name_international":{"en":"Bonchon Chicken","ko":"본촌치킨"},"contact":{"phone":"+1-408-720-8689"},"catering":{"cuisine":"korean;fried_chicken"},"place_id":"517b02171abe815ec059bce6deef61ae4240f00103f901c1e57f040100000092030f426f6e63686f6e20436869636b656e"},"geometry":{"type":"Point","coordinates":[-122.0272279,37.36236379989484]}},{"type":"Feature","properties":{"name":"Madurai Idli Kadai","country":"United States","country_code":"us","state":"California","county":"Santa Clara County","city":"Sunnyvale","postcode":"94086","street":"South Wolfe Road","housenumber":"744","lon":-122.013423,"lat":37.3660613,"state_code":"CA","formatted":"Madurai Idli Kadai, 744 South Wolfe Road, Sunnyvale, CA 94086, United States of America","address_line1":"Madurai Idli Kadai","address_line2":"744 South Wolfe Road, Sunnyvale, CA 94086, United States of America","categories":["catering","catering.restaurant","vegan","vegetarian"],"details":["details","details.catering","details.contact"],"datasource":{"sourcename":"openstreetmap","attribution":"© OpenStreetMap contributors","license":"Open Database License","url":"https://www.openstreetmap.org/copyright","raw":{"name":"Madurai Idli Kadai","order":"https://sliceq.com/madurai-idli-kadai-sunnyvale-ca/store/madurai?utm_source=cust_website","phone":"+14087384354","osm_id":11330220238,"amenity":"restaurant","cuisine":"indian;south_indian","website":"http://www.maduraiidlishop.com/","osm_type":"n","addr:city":"Sunnyvale","addr:state":"CA","diet:vegan":"yes","addr:street":"S Wolfe Rd","addr:postcode":94086,"opening_hours":"Mo,We,Th 08:30-14:30,17:30-9:30; Fr-Su 08:30-14:30,17:30-10:000","diet:vegetarian":"yes","addr:housenumber":744,"diet:lactose_free":"yes"}},"website":"http://www.maduraiidlishop.com/","opening_hours":"Mo,We,Th 08:30-14:30,17:30-9:30; Fr-Su 08:30-14:30,17:30-10:000","contact":{"phone":"+14087384354"},"catering":{"cuisine":"indian;south_indian","diet":{"vegan":true,"vegetarian":true,"lactose_free":true}},"place_id":"51ea8024ecdb805ec059dab0bf18dbae4240f00103f901ce7055a3020000009203124d6164757261692049646c69204b61646169"},"geometry":{"type":"Point","coordinates":[-122.01342300000002,37.36606129989532]}},{"type":"Feature","properties":{"name":"Starbird Chicken","country":"United States","country_code":"us","state":"California","county":"Santa Clara County","city":"Sunnyvale","postcode":"94087","street":"West El Camino Real","housenumber":"1241","lon":-122.057101086727,"lat":37.374643649999996,"state_code":"CA","formatted":"Starbird Chicken, 1241 West El Camino Real, Sunnyvale, CA 94087, United States of America","address_line1":"Starbird Chicken","address_line2":"1241 West El Camino Real, Sunnyvale, CA 94087, United States of America","categories":["building","building.catering","building.commercial","catering","catering.restaurant","catering.restaurant.chicken"],"details":["details","details.catering","details.contact","details.facilities"],"datasource":{"sourcename":"openstreetmap","attribution":"© OpenStreetMap contributors","license":"Open Database License","url":"https://www.openstreetmap.org/copyright","raw":{"name":"Starbird Chicken","phone":"650.988.6630","osm_id":31119571,"amenity":"restaurant","cuisine":"chicken","website":"https://starbirdchicken.com/","building":"retail","osm_type":"w","takeaway":"yes","addr:city":"Sunnyvale","addr:state":"CA","addr:street":"West El Camino Real","addr:postcode":94087,"outdoor_seating":"no","addr:housenumber":1241}},"website":"https://starbirdchicken.com/","contact":{"phone":"650.988.6630"},"facilities":{"outdoor_seating":false,"takeaway":true},"catering":{"cuisine":"chicken"},"building":{"type":"retail"},"place_id":"51be03518ba7835ec059cbfab752f4af4240f00102f901d3d8da0100000000920310537461726269726420436869636b656e"},"geometry":{"type":"Point","coordinates":[-122.05710108672699,37.37464364989645]}},{"type":"Feature","properties":{"name":"Hobee's","country":"United States","country_code":"us","state":"California","county":"Santa Clara County","city":"Sunnyvale","postcode":"94086","street":"West Ahwanee Avenue","housenumber":"800","lon":-122.02803578150835,"lat":37.3955139,"state_code":"CA","formatted":"Hobee's, 800 West Ahwanee Avenue, Sunnyvale, CA 94086, United States of America","address_line1":"Hobee's","address_line2":"800 West Ahwanee Avenue, Sunnyvale, CA 94086, United States of America","categories":["building","building.catering","catering","catering.restaurant","catering.restaurant.american"],"details":["details","details.catering","details.contact"],"datasource":{"sourcename":"openstreetmap","attribution":"© OpenStreetMap contributors","license":"Open Database License","url":"https://www.openstreetmap.org/copyright","raw":{"name":"Hobee's","phone":"+1.408.524.3580","osm_id":101670498,"amenity":"restaurant","cuisine":"american","website":"http://www.hobees.com/sunnyvale.html","building":"yes","operator":"Hobee's","osm_type":"w","addr:city":"Sunnyvale","addr:street":"West Ahwanee Avenue","addr:country":"US","addr:postcode":94086,"addr:housenumber":800}},"website":"http://www.hobees.com/sunnyvale.html","operator":"Hobee's","contact":{"phone":"+1.408.524.3580"},"catering":{"cuisine":"american"},"place_id":"518e2c9756cb815ec0591c971033a0b24240f00102f901625e0f0600000000920307486f6265652773"},"geometry":{"type":"Point","coordinates":[-122.02803578150835,37.395513899899214]}},{"type":"Feature","properties":{"name":"Ocean Blue Sushi Club","country":"United States","country_code":"us","state":"California","county":"Santa Clara County","city":"Sunnyvale","postcode":"94087","street":"East El Camino Real","housenumber":"1010","lon":-122.0066024059537,"lat":37.351740199999995,"state_code":"CA","formatted":"Ocean Blue Sushi Club, 1010 East El Camino Real, Sunnyvale, CA 94087, United States of America","address_line1":"Ocean Blue Sushi Club","address_line2":"1010 East El Camino Real, Sunnyvale, CA 94087, United States of America","categories":["building","building.catering","catering","catering.restaurant","catering.restaurant.sushi"],"details":["details","details.catering","details.contact","details.payment"],"datasource":{"sourcename":"openstreetmap","attribution":"© OpenStreetMap contributors","license":"Open Database License","url":"https://www.openstreetmap.org/copyright","raw":{"name":"Ocean Blue Sushi Club","phone":"408-720-8840","osm_id":260784260,"amenity":"restaurant","cuisine":"sushi","website":"http://oceanbluesushica.com/","building":"yes","osm_type":"w","addr:city":"Sunnyvale","addr:street":"East El Camino Real","contact:yelp":"http://www.yelp.com/biz/ocean-blue-sushi-club-sunnyvale?nb=1","addr:postcode":94087,"addr:housenumber":1010,"payment:litecoin":"yes"}},"website":"http://oceanbluesushica.com/","contact":{"phone":"408-720-8840"},"payment_options":{"litecoin":true},"catering":{"cuisine":"sushi"},"place_id":"5158697f2c6c805ec0598c9da7d205ad4240f00102f90184408b0f000000009203154f6365616e20426c756520537573686920436c7562"},"geometry":{"type":"Point","coordinates":[-122.00660240595369,37.35174019989344]}},{"type":"Feature","properties":{"name":"The Pasta Market","country":"United States","country_code":"us","state":"California","county":"Santa Clara County","city":"Sunnyvale","postcode":"94087","street":"East El Camino Real","housenumber":"460","lon":-122.028385,"lat":37.3634307,"state_code":"CA","formatted":"The Pasta Market, 460 East El Camino Real, Sunnyvale, CA 94087, United States of America","address_line1":"The Pasta Market","address_line2":"460 East El Camino Real, Sunnyvale, CA 94087, United States of America","categories":["catering","catering.restaurant","catering.restaurant.italian"],"details":["details","details.catering"],"datasource":{"sourcename":"openstreetmap","attribution":"© OpenStreetMap contributors","license":"Open Database License","url":"https://www.openstreetmap.org/copyright","raw":{"name":"The Pasta Market","osm_id":488622827,"amenity":"restaurant","cuisine":"italian","website":"https://sunnyvale.pastamarket.com/","osm_type":"n","addr:city":"Sunnyvale","addr:state":"CA","check_date":"2023-11-20","addr:street":"East El Camino Real","addr:postcode":94087,"opening_hours":"Mo-Su 11:00-20:00","addr:housenumber":460}},"website":"https://sunnyvale.pastamarket.com/","opening_hours":"Mo-Su 11:00-20:00","catering":{"cuisine":"italian"},"place_id":"519aac510fd1815ec059a634ade584ae4240f00103f901ebca1f1d00000000920310546865205061737461204d61726b6574"},"geometry":{"type":"Point","coordinates":[-122.02838499999999,37.36343069989498]}},{"type":"Feature","properties":{"name":"Dish Dash","country":"United States","country_code":"us","state":"California","county":"Santa Clara County","city":"Sunnyvale","postcode":"94086","street":"South Murphy Avenue","housenumber":"190","lon":-122.030099,"lat":37.376262,"state_code":"CA","formatted":"Dish Dash, 190 South Murphy Avenue, Sunnyvale, CA 94086, United States of America","address_line1":"Dish Dash","address_line2":"190 South Murphy Avenue, Sunnyvale, CA 94086, United States of America","categories":["catering","catering.restaurant","catering.restaurant.mediterranean","vegetarian"],"details":["details","details.catering","details.contact","details.facilities"],"datasource":{"sourcename":"openstreetmap","attribution":"© OpenStreetMap contributors","license":"Open Database License","url":"https://www.openstreetmap.org/copyright","raw":{"name":"Dish Dash","level":0,"phone":"+1 408 774 1889","osm_id":566054493,"amenity":"restaurant","cuisine":"mediterranean","website":"https://www.dishdash.com/location/dishdash-sunnyvale/","osm_type":"n","addr:city":"Sunnyvale","addr:state":"CA","addr:street":"South Murphy Avenue","addr:postcode":94086,"diet:vegetarian":"yes","outdoor_seating":"yes","addr:housenumber":190,"opening_hours:url":"https://www.dishdash.com/location/dishdash-sunnyvale/"}},"website":"https://www.dishdash.com/location/dishdash-sunnyvale/","contact":{"phone":"+1 408 774 1889"},"facilities":{"outdoor_seating":true},"catering":{"cuisine":"mediterranean","diet":{"vegetarian":true}},"place_id":"511c295b24ed815ec05951246c5a29b04240f00103f9015d4ebd2100000000920309446973682044617368"},"geometry":{"type":"Point","coordinates":[-122.030099,37.37626199989666]}},{"type":"Feature","properties":{"name":"Tasty Subs","country":"United States","country_code":"us","state":"California","county":"Santa Clara County","city":"Sunnyvale","postcode":"94085","street":"Lawrence Expressway","housenumber":"528","lon":-121.9953133,"lat":37.3833657,"state_code":"CA","formatted":"Tasty Subs, 528 Lawrence Expressway, Sunnyvale, CA 94085, United States of America","address_line1":"Tasty Subs","address_line2":"528 Lawrence Expressway, Sunnyvale, CA 94085, United States of America","categories":["catering","catering.restaurant","catering.restaurant.sandwich"],"details":["details","details.catering","details.contact"],"datasource":{"sourcename":"openstreetmap","attribution":"© OpenStreetMap contributors","license":"Open Database License","url":"https://www.openstreetmap.org/copyright","raw":{"name":"Tasty Subs","phone":"+1-408-738-8761","osm_id":988280236,"amenity":"restaurant","cuisine":"sandwich","website":"https://tastysubspizza.com/","osm_type":"n","addr:street":"Lawrence Expressway","addr:housenumber":528}},"website":"https://tastysubspizza.com/","contact":{"phone":"+1-408-738-8761"},"catering":{"cuisine":"sandwich"},"place_id":"5187318e36b37f5ec059f3bb932012b14240f00103f901acf5e73a0000000092030a54617374792053756273"},"geometry":{"type":"Point","coordinates":[-121.9953133,37.3833656998976]}},{"type":"Feature","properties":{"name":"Armadillo Willy’s","country":"United States","country_code":"us","state":"California","county":"Santa Clara County","city":"Sunnyvale","postcode":"94086","street":"Cezanne Drive","lon":-122.0286362,"lat":37.3659296,"state_code":"CA","formatted":"Armadillo Willy’s, Cezanne Drive, Sunnyvale, CA 94086, United States of America","address_line1":"Armadillo Willy’s","address_line2":"Cezanne Drive, Sunnyvale, CA 94086, United States of America","categories":["catering","catering.restaurant","catering.restaurant.barbecue"],"details":["details","details.catering","details.contact"],"datasource":{"sourcename":"openstreetmap","attribution":"© OpenStreetMap contributors","license":"Open Database License","url":"https://www.openstreetmap.org/copyright","raw":{"name":"Armadillo Willy’s","phone":"+1.408.245.5300","osm_id":1067594087,"amenity":"restaurant","cuisine":"barbecue","website":"https://www.armadillowillys.com/","osm_type":"n"}},"website":"https://www.armadillowillys.com/","contact":{"phone":"+1.408.245.5300"},"catering":{"cuisine":"barbecue"},"place_id":"51d49eed2cd5815ec0592718f8c7d6ae4240f00103f9016731a23f0000000092031341726d6164696c6c6f2057696c6c79e2809973"},"geometry":{"type":"Point","coordinates":[-122.0286362,37.3659295998953]}},{"type":"Feature","properties":{"name":"House of Kabobs","country":"United States","country_code":"us","state":"California","county":"Santa Clara County","city":"Sunnyvale","postcode":"94086","street":"South Sunnyvale Avenue","housenumber":"161","lon":-122.029755,"lat":37.3765443,"state_code":"CA","formatted":"House of Kabobs, 161 South Sunnyvale Avenue, Sunnyvale, CA 94086, United States of America","address_line1":"House of Kabobs","address_line2":"161 South Sunnyvale Avenue, Sunnyvale, CA 94086, United States of America","categories":["catering","catering.restaurant","catering.restaurant.persian"],"details":["details","details.catering","details.facilities"],"datasource":{"sourcename":"openstreetmap","attribution":"© OpenStreetMap contributors","license":"Open Database License","url":"https://www.openstreetmap.org/copyright","raw":{"name":"House of Kabobs","osm_id":1595294678,"amenity":"restaurant","cuisine":"persian","website":"https://www.houseofkabobs.com/","osm_type":"n","takeaway":"yes","addr:city":"Sunnyvale","addr:state":"CA","addr:street":"South Sunnyvale Avenue","addr:postcode":94086,"contact:website":"https://www.houseofkabobs.com/contact.html","addr:housenumber":161}},"website":"https://www.houseofkabobs.com/","website_other":["https://www.houseofkabobs.com/contact.html"],"facilities":{"takeaway":true},"catering":{"cuisine":"persian"},"place_id":"511cf98381e7815ec05999c6869a32b04240f00103f901d643165f0000000092030f486f757365206f66204b61626f6273"},"geometry":{"type":"Point","coordinates":[-122.02975499999997,37.3765442998967]}},{"type":"Feature","properties":{"name":"Country Gourmet","country":"United States","country_code":"us","state":"California","county":"Santa Clara County","city":"Sunnyvale","postcode":"94087","street":"South Mary Avenue","housenumber":"1314","lon":-122.0494105,"lat":37.3514975,"state_code":"CA","formatted":"Country Gourmet, 1314 South Mary Avenue, Sunnyvale, CA 94087, United States of America","address_line1":"Country Gourmet","address_line2":"1314 South Mary Avenue, Sunnyvale, CA 94087, United States of America","categories":["catering","catering.restaurant","catering.restaurant.american"],"details":["details","details.catering","details.contact"],"datasource":{"sourcename":"openstreetmap","attribution":"© OpenStreetMap contributors","license":"Open Database License","url":"https://www.openstreetmap.org/copyright","raw":{"name":"Country Gourmet","phone":"(408) 733-9446","osm_id":1843364346,"amenity":"restaurant","cuisine":"american","website":"http://country-gourmet.com/","osm_type":"n","addr:city":"Sunnyvale","addr:state":"CA","addr:street":"South Mary Avenue","addr:country":"US","addr:postcode":94087,"addr:housenumber":1314}},"website":"http://country-gourmet.com/","contact":{"phone":"(408) 733-9446"},"catering":{"cuisine":"american"},"place_id":"510e65a88a29835ec0597e55bddefdac4240f00103f901fa81df6d0000000092030f436f756e74727920476f75726d6574"},"geometry":{"type":"Point","coordinates":[-122.0494105,37.3514974998934]}},{"type":"Feature","properties":{"name":"The Gurkha Kitchen","country":"United States","country_code":"us","state":"California","county":"Santa Clara County","city":"Sunnyvale","postcode":"94087","street":"South Mary Avenue","housenumber":"1342","lon":-122.049474,"lat":37.3507071,"state_code":"CA","formatted":"The Gurkha Kitchen, 1342 South Mary Avenue, Sunnyvale, CA 94087, United States of America","address_line1":"The Gurkha Kitchen","address_line2":"1342 South Mary Avenue, Sunnyvale, CA 94087, United States of America","categories":["catering","catering.restaurant","catering.restaurant.indian"],"details":["details","details.catering","details.contact"],"datasource":{"sourcename":"openstreetmap","attribution":"© OpenStreetMap contributors","license":"Open Database License","url":"https://www.openstreetmap.org/copyright","raw":{"name":"The Gurkha Kitchen","phone":"(408) 212-4660","osm_id":1843364388,"amenity":"restaurant","cuisine":"indian","website":"https://www.gurkhakitchensunnyvale.com/","osm_type":"n","addr:city":"Sunnyvale","addr:state":"CA","addr:street":"South Mary Avenue","addr:country":"US","addr:postcode":94087,"addr:housenumber":1342}},"website":"https://www.gurkhakitchensunnyvale.com/","contact":{"phone":"(408) 212-4660"},"catering":{"cuisine":"indian"},"place_id":"512600ff942a835ec059244262f8e3ac4240f00103f9012482df6d00000000920312546865204775726b6861204b69746368656e"},"geometry":{"type":"Point","coordinates":[-122.049474,37.3507070998933]}},{"type":"Feature","properties":{"name":"Sushi Blvd","country":"United States","country_code":"us","state":"California","county":"Santa Clara County","city":"Sunnyvale","postcode":"94085","street":"East Duane Avenue","housenumber":"903","lon":-122.0045968,"lat":37.3888783,"state_code":"CA","formatted":"Sushi Blvd, 903 East Duane Avenue, Sunnyvale, CA 94085, United States of America","address_line1":"Sushi Blvd","address_line2":"903 East Duane Avenue, Sunnyvale, CA 94085, United States of America","categories":["catering","catering.restaurant","catering.restaurant.sushi"],"details":["details","details.catering","details.contact"],"datasource":{"sourcename":"openstreetmap","attribution":"© OpenStreetMap contributors","license":"Open Database License","url":"https://www.openstreetmap.org/copyright","raw":{"name":"Sushi Blvd","phone":4087377183,"osm_id":1993236250,"amenity":"restaurant","cuisine":"sushi","website":"http://www.sushiblvd.com/","osm_type":"n","addr:street":"East Duane Avenue","addr:housenumber":903}},"website":"http://www.sushiblvd.com/","contact":{"phone":4087377183},"catering":{"cuisine":"sushi"},"place_id":"51a46a60504b805ec059fe179ec3c6b14240f00103f9011a5fce760000000092030a537573686920426c7664"},"geometry":{"type":"Point","coordinates":[-122.0045968,37.38887829989834]}},{"type":"Feature","properties":{"name":"Tia Juana Grill","country":"United States","country_code":"us","state":"California","county":"Santa Clara County","city":"Sunnyvale","postcode":"94085","street":"East Duane Avenue","housenumber":"901","lon":-122.0045941,"lat":37.3887291,"state_code":"CA","formatted":"Tia Juana Grill, 901 East Duane Avenue, Sunnyvale, CA 94085, United States of America","address_line1":"Tia Juana Grill","address_line2":"901 East Duane Avenue, Sunnyvale, CA 94085, United States of America","categories":["catering","catering.restaurant","catering.restaurant.mexican"],"details":["details","details.catering","details.contact"],"datasource":{"sourcename":"openstreetmap","attribution":"© OpenStreetMap contributors","license":"Open Database License","url":"https://www.openstreetmap.org/copyright","raw":{"name":"Tia Juana Grill","phone":4087308578,"osm_id":1993236257,"amenity":"restaurant","cuisine":"mexican","website":"http://www.tiajuanamexicangrill.com/","osm_type":"n","addr:housenumber":901}},"website":"http://www.tiajuanamexicangrill.com/","contact":{"phone":4087308578},"catering":{"cuisine":"mexican"},"place_id":"514c500d454b805ec0598c8809e0c1b14240f00103f901215fce760000000092030f546961204a75616e61204772696c6c"},"geometry":{"type":"Point","coordinates":[-122.00459410000002,37.38872909989831]}},{"type":"Feature","properties":{"name":"Chaat House","country":"United States","country_code":"us","state":"California","county":"Santa Clara County","city":"Sunnyvale","postcode":"94086","street":"East El Camino Real","housenumber":"889","lon":-122.0148499,"lat":37.3539894,"state_code":"CA","formatted":"Chaat House, 889 East El Camino Real, Sunnyvale, CA 94086, United States of America","address_line1":"Chaat House","address_line2":"889 East El Camino Real, Sunnyvale, CA 94086, United States of America","categories":["catering","catering.restaurant","catering.restaurant.indian","internet_access","internet_access.free","wheelchair","wheelchair.yes"],"details":["details","details.catering","details.contact","details.facilities"],"datasource":{"sourcename":"openstreetmap","attribution":"© OpenStreetMap contributors","license":"Open Database License","url":"https://www.openstreetmap.org/copyright","raw":{"name":"Chaat House","phone":"+1 408 7339000","osm_id":2024202790,"amenity":"restaurant","cuisine":"indian","smoking":"no","website":"www.chaatus.com","drive_in":"no","osm_type":"n","takeaway":"yes","addr:city":"Sunnyvale","addr:state":"CA","wheelchair":"yes","addr:street":"East El Camino Real","addr:country":"US","microbrewery":"no","addr:postcode":94086,"internet_access":"no","outdoor_seating":"no","addr:housenumber":889,"internet_access:fee":"no"}},"website":"www.chaatus.com","contact":{"phone":"+1 408 7339000"},"facilities":{"internet_access":false,"wheelchair":true,"smoking":false,"outdoor_seating":false,"takeaway":true},"catering":{"cuisine":"indian"},"place_id":"5155b6fe4cf3805ec0594ed64f864fad4240f00103f90126e2a6780000000092030b436861617420486f757365"},"geometry":{"type":"Point","coordinates":[-122.01484990000002,37.353989399893734]}},{"type":"Feature","properties":{"name":"Little India Cafe","country":"United States","country_code":"us","state":"California","county":"Santa Clara County","city":"Sunnyvale","postcode":"94085","street":"North Mary Avenue","housenumber":"415","lon":-122.0423729,"lat":37.3897835,"state_code":"CA","formatted":"Little India Cafe, 415 North Mary Avenue, Sunnyvale, CA 94085, United States of America","address_line1":"Little India Cafe","address_line2":"415 North Mary Avenue, Sunnyvale, CA 94085, United States of America","categories":["catering","catering.restaurant","catering.restaurant.indian"],"details":["details","details.catering","details.contact"],"datasource":{"sourcename":"openstreetmap","attribution":"© OpenStreetMap contributors","license":"Open Database License","url":"https://www.openstreetmap.org/copyright","raw":{"name":"Little India Cafe","phone":"+14088235502","osm_id":2128203209,"amenity":"restaurant","cuisine":"indian","website":"http://littleindiacafeus.com","osm_type":"n","addr:city":"Sunnyvale","addr:street":"North Mary Avenue","addr:postcode":94085,"addr:housenumber":415}},"website":"http://littleindiacafeus.com","contact":{"phone":"+14088235502"},"catering":{"cuisine":"indian"},"place_id":"5127efd23cb6825ec059ca4afc6ce4b14240f00103f901c9cdd97e000000009203114c6974746c6520496e6469612043616665"},"geometry":{"type":"Point","coordinates":[-122.04237290000002,37.389783499898456]}},{"type":"Feature","properties":{"name":"Sushi Club","country":"United States","country_code":"us","state":"California","county":"Santa Clara County","city":"Sunnyvale","postcode":"94085","street":"North Mary Avenue","housenumber":"415","lon":-122.0423036,"lat":37.3898973,"state_code":"CA","formatted":"Sushi Club, 415 North Mary Avenue, Sunnyvale, CA 94085, United States of America","address_line1":"Sushi Club","address_line2":"415 North Mary Avenue, Sunnyvale, CA 94085, United States of America","categories":["catering","catering.restaurant","catering.restaurant.japanese"],"details":["details","details.catering","details.contact"],"datasource":{"sourcename":"openstreetmap","attribution":"© OpenStreetMap contributors","license":"Open Database License","url":"https://www.openstreetmap.org/copyright","raw":{"name":"Sushi Club","phone":"+14087380408","osm_id":2128203210,"amenity":"restaurant","cuisine":"japanese","website":"http://sushiclubsunnyvale.com","osm_type":"n","addr:city":"Sunnyvale","addr:unit":104,"addr:street":"North Mary Avenue","addr:postcode":94085,"addr:housenumber":415}},"website":"http://sushiclubsunnyvale.com","contact":{"phone":"+14087380408"},"catering":{"cuisine":"japanese"},"place_id":"5132a0281ab5825ec0596cee9b27e8b14240f00103f901cacdd97e0000000092030a537573686920436c7562"},"geometry":{"type":"Point","coordinates":[-122.0423036,37.38989729989848]}},{"type":"Feature","properties":{"name":"Mayan Kitchen","country":"United States","country_code":"us","state":"California","county":"Santa Clara County","city":"Sunnyvale","postcode":"94086","street":"South Murphy Avenue","housenumber":"139","lon":-122.0302629,"lat":37.3770119,"state_code":"CA","formatted":"Mayan Kitchen, 139 South Murphy Avenue, Sunnyvale, CA 94086, United States of America","address_line1":"Mayan Kitchen","address_line2":"139 South Murphy Avenue, Sunnyvale, CA 94086, United States of America","categories":["catering","catering.restaurant","catering.restaurant.american","catering.restaurant.latin_american","vegan"],"details":["details","details.catering"],"datasource":{"sourcename":"openstreetmap","attribution":"© OpenStreetMap contributors","license":"Open Database License","url":"https://www.openstreetmap.org/copyright","raw":{"name":"Mayan Kitchen","osm_id":2235551636,"amenity":"restaurant","cuisine":"latin_american","website":"https://www.mayankitchenfood.com","osm_type":"n","addr:city":"Sunnyvale","addr:state":"CA","diet:vegan":"yes","addr:street":"South Murphy Avenue","addr:postcode":94086,"opening_hours":"Tu-Th 17:00-21:00; Fr-Su 11:00-14:30,17:00-21:00","addr:housenumber":139}},"website":"https://www.mayankitchenfood.com","opening_hours":"Tu-Th 17:00-21:00; Fr-Su 11:00-14:30,17:00-21:00","catering":{"cuisine":"latin_american","diet":{"vegan":true}},"place_id":"510e72cdd3ef815ec05935210aed41b04240f00103f90194cf3f850000000092030d4d6179616e204b69746368656e"},"geometry":{"type":"Point","coordinates":[-122.0302629,37.377011899896765]}},{"type":"Feature","properties":{"name":"Chaats and Curry","country":"United States","country_code":"us","state":"California","county":"Santa Clara County","city":"Sunnyvale","postcode":"94085","street":"Lawrence Expressway","housenumber":"520","lon":-121.9952596,"lat":37.3832187,"state_code":"CA","formatted":"Chaats and Curry, 520 Lawrence Expressway, Sunnyvale, CA 94085, United States of America","address_line1":"Chaats and Curry","address_line2":"520 Lawrence Expressway, Sunnyvale, CA 94085, United States of America","categories":["catering","catering.restaurant","catering.restaurant.indian"],"details":["details","details.catering","details.contact"],"datasource":{"sourcename":"openstreetmap","attribution":"© OpenStreetMap contributors","license":"Open Database License","url":"https://www.openstreetmap.org/copyright","raw":{"name":"Chaats and Curry","phone":"+1-408-746-9192","osm_id":2607395534,"amenity":"restaurant","cuisine":"indian","website":"https://www.chaatsandcurrys.com/chaatsandcurrys.html","osm_type":"n","addr:unit":310,"addr:street":"Lawrence Expressway","addr:housenumber":520}},"website":"https://www.chaatsandcurrys.com/chaatsandcurrys.html","contact":{"phone":"+1-408-746-9192"},"catering":{"cuisine":"indian"},"place_id":"51eb415255b27f5ec0594ca3734f0db14240f00103f901ceb2699b0000000092031043686161747320616e64204375727279"},"geometry":{"type":"Point","coordinates":[-121.99525959999998,37.38321869989758]}},{"type":"Feature","properties":{"name":"Madhuban Indian Cuisine","country":"United States","country_code":"us","state":"California","county":"Santa Clara County","city":"Sunnyvale","postcode":"94085","street":"Lawrence Expressway","housenumber":"544","lon":-121.9952095,"lat":37.3844085,"state_code":"CA","formatted":"Madhuban Indian Cuisine, 544 Lawrence Expressway, Sunnyvale, CA 94085, United States of America","address_line1":"Madhuban Indian Cuisine","address_line2":"544 Lawrence Expressway, Sunnyvale, CA 94085, United States of America","categories":["catering","catering.restaurant","catering.restaurant.indian"],"details":["details","details.catering","details.contact"],"datasource":{"sourcename":"openstreetmap","attribution":"© OpenStreetMap contributors","license":"Open Database License","url":"https://www.openstreetmap.org/copyright","raw":{"name":"Madhuban Indian Cuisine","phone":"+1-408-735-7448","osm_id":2607395547,"amenity":"restaurant","cuisine":"indian","website":"http://www.madhubanindiancuisine.net/","osm_type":"n","addr:street":"Lawrence Expressway","addr:housenumber":544}},"website":"http://www.madhubanindiancuisine.net/","contact":{"phone":"+1-408-735-7448"},"catering":{"cuisine":"indian"},"place_id":"51c9ca2f83b17f5ec059c0ae374c34b14240f00103f901dbb2699b000000009203174d6164687562616e20496e6469616e2043756973696e65"},"geometry":{"type":"Point","coordinates":[-121.9952095,37.384408499897745]}},{"type":"Feature","properties":{"name":"Madurai Modern Cafe","country":"United States","country_code":"us","state":"California","county":"Santa Clara County","city":"Sunnyvale","postcode":"94086","street":"East Evelyn Avenue","housenumber":"848","lon":-122.014237,"lat":37.370127,"state_code":"CA","formatted":"Madurai Modern Cafe, 848 East Evelyn Avenue, Sunnyvale, CA 94086, United States of America","address_line1":"Madurai Modern Cafe","address_line2":"848 East Evelyn Avenue, Sunnyvale, CA 94086, United States of America","categories":["catering","catering.restaurant","catering.restaurant.indian"],"details":["details","details.catering","details.contact"],"datasource":{"sourcename":"openstreetmap","attribution":"© OpenStreetMap contributors","license":"Open Database License","url":"https://www.openstreetmap.org/copyright","raw":{"name":"Madurai Modern Cafe","phone":"+1 408 685-2985","osm_id":2663431758,"amenity":"restaurant","cuisine":"indian","website":"https://maduraimoderncafe.com/","osm_type":"n","addr:street":"East Evelyn Avenue","addr:postcode":94086,"addr:housenumber":848}},"website":"https://maduraimoderncafe.com/","contact":{"phone":"+1 408 685-2985"},"catering":{"cuisine":"indian"},"place_id":"5128594e42e9805ec059acf54f5260af4240f00103f9014ebec09e000000009203134d616475726169204d6f6465726e2043616665"},"geometry":{"type":"Point","coordinates":[-122.01423699999998,37.37012699989586]}},{"type":"Feature","properties":{"name":"Chaat House","country":"United States","country_code":"us","state":"California","county":"Santa Clara County","city":"Sunnyvale","postcode":"94807","street":"West El Camino Real","housenumber":"939","lon":-122.0456352,"lat":37.3716522,"state_code":"CA","formatted":"Chaat House, 939 West El Camino Real, Sunnyvale, CA 94807, United States of America","address_line1":"Chaat House","address_line2":"939 West El Camino Real, Sunnyvale, CA 94807, United States of America","categories":["catering","catering.restaurant","catering.restaurant.indian"],"details":["details","details.catering","details.contact"],"datasource":{"sourcename":"openstreetmap","attribution":"© OpenStreetMap contributors","license":"Open Database License","url":"https://www.openstreetmap.org/copyright","raw":{"name":"Chaat House","phone":"+1 408 733 1111","osm_id":3066022105,"amenity":"restaurant","cuisine":"indian","website":"http://chaatus.com","osm_type":"n","addr:street":"West El Camino Real","addr:housenumber":939}},"website":"http://chaatus.com","contact":{"phone":"+1 408 733 1111"},"catering":{"cuisine":"indian"},"place_id":"51f9e2e6afeb825ec0591f059e4c92af4240f00103f901d9c8bfb60000000092030b436861617420486f757365"},"geometry":{"type":"Point","coordinates":[-122.0456352,37.371652199896054]}},{"type":"Feature","properties":{"name":"Vito's Famous Pizza","country":"United States","country_code":"us","state":"California","county":"Santa Clara County","city":"Sunnyvale","postcode":"94086","street":"Reed Avenue","housenumber":"1155","lon":-121.9976479,"lat":37.3671559,"state_code":"CA","formatted":"Vito's Famous Pizza, 1155 Reed Avenue, Sunnyvale, CA 94086, United States of America","address_line1":"Vito's Famous Pizza","address_line2":"1155 Reed Avenue, Sunnyvale, CA 94086, United States of America","categories":["catering","catering.restaurant","catering.restaurant.pizza"],"details":["details","details.catering","details.contact"],"datasource":{"sourcename":"openstreetmap","attribution":"© OpenStreetMap contributors","license":"Open Database License","url":"https://www.openstreetmap.org/copyright","raw":{"name":"Vito's Famous Pizza","phone":"+1 408 246 8800","osm_id":3300883732,"amenity":"restaurant","cuisine":"pizza","website":"https://www.vitospizzasunnyvale.com/","osm_type":"n","addr:city":"Sunnyvale","addr:street":"Reed Avenue","addr:postcode":94086,"addr:housenumber":1155}},"website":"https://www.vitospizzasunnyvale.com/","contact":{"phone":"+1 408 246 8800"},"catering":{"cuisine":"pizza"},"place_id":"5114db9376d97f5ec059d04aebf6feae4240f00103f901147dbfc4000000009203135669746f27732046616d6f75732050697a7a61"},"geometry":{"type":"Point","coordinates":[-121.9976479,37.367155899895465]}},{"type":"Feature","properties":{"name":"Bella's Bar & Grill","country":"United States","country_code":"us","state":"California","county":"Santa Clara County","city":"Sunnyvale","postcode":"94089","street":"Elko Drive","housenumber":"111","lon":-121.9949493,"lat":37.4065859,"state_code":"CA","formatted":"Bella's Bar & Grill, 111 Elko Drive, Sunnyvale, CA 94089, United States of America","address_line1":"Bella's Bar & Grill","address_line2":"111 Elko Drive, Sunnyvale, CA 94089, United States of America","categories":["catering","catering.restaurant","catering.restaurant.mediterranean"],"details":["details","details.catering","details.contact","details.facilities"],"datasource":{"sourcename":"openstreetmap","attribution":"© OpenStreetMap contributors","license":"Open Database License","url":"https://www.openstreetmap.org/copyright","raw":{"name":"Bella's Bar & Grill","phone":"+1 408 744-0485","osm_id":3451448572,"amenity":"restaurant","cuisine":"mediterranean","website":"https://bellasbargrill.com/","delivery":"yes","osm_type":"n","addr:city":"Sunnyvale","addr:state":"CA","addr:street":"Elko Drive","addr:postcode":94089,"addr:housenumber":111}},"website":"https://bellasbargrill.com/","contact":{"phone":"+1 408 744-0485"},"facilities":{"delivery":true},"catering":{"cuisine":"mediterranean"},"place_id":"51672bd43fad7f5ec0594a8bbb010bb44240f00103f901fcecb8cd0000000092031342656c6c612773204261722026204772696c6c"},"geometry":{"type":"Point","coordinates":[-121.99494930000002,37.40658589990069]}},{"type":"Feature","properties":{"name":"Kabul","country":"United States","country_code":"us","state":"California","county":"Santa Clara County","city":"Sunnyvale","postcode":"94086","street":"West Washington Avenue","housenumber":"351","lon":-122.033301,"lat":37.3767462,"state_code":"CA","formatted":"Kabul, 351 West Washington Avenue, Sunnyvale, CA 94086, United States of America","address_line1":"Kabul","address_line2":"351 West Washington Avenue, Sunnyvale, CA 94086, United States of America","categories":["catering","catering.restaurant","catering.restaurant.afghan"],"details":["details","details.catering","details.contact"],"datasource":{"sourcename":"openstreetmap","attribution":"© OpenStreetMap contributors","license":"Open Database License","url":"https://www.openstreetmap.org/copyright","raw":{"name":"Kabul","level":0,"phone":"+1-408-245-4350","osm_id":3537007146,"amenity":"restaurant","cuisine":"afghan","website":"https://www.kabulrestaurant.net/","operator":"Kabura Incorporated","osm_type":"n","addr:city":"Sunnyvale","addr:state":"CA","addr:street":"West Washington Avenue","addr:postcode":94086,"official_name":"Kabul Afghan Cuisine","addr:housenumber":351}},"website":"https://www.kabulrestaurant.net/","operator":"Kabura Incorporated","name_other":{"official_name":"Kabul Afghan Cuisine"},"contact":{"phone":"+1-408-245-4350"},"catering":{"cuisine":"afghan"},"place_id":"51247b849a21825ec05970b92f3839b04240f00103f9012a72d2d2000000009203054b6162756c"},"geometry":{"type":"Point","coordinates":[-122.033301,37.37674619989673]}},{"type":"Feature","properties":{"name":"Roberto's Cantina","country":"United States","country_code":"us","state":"California","county":"Santa Clara County","city":"Sunnyvale","postcode":"94086","street":"South Murphy Avenue","housenumber":"168","lon":-122.030079,"lat":37.3765311,"state_code":"CA","formatted":"Roberto's Cantina, 168 South Murphy Avenue, Sunnyvale, CA 94086, United States of America","address_line1":"Roberto's Cantina","address_line2":"168 South Murphy Avenue, Sunnyvale, CA 94086, United States of America","categories":["catering","catering.restaurant","catering.restaurant.mexican"],"details":["details","details.catering"],"datasource":{"sourcename":"openstreetmap","attribution":"© OpenStreetMap contributors","license":"Open Database License","url":"https://www.openstreetmap.org/copyright","raw":{"name":"Roberto's Cantina","osm_id":3537007148,"amenity":"restaurant","cuisine":"mexican","website":"https://www.robertoscantina.com/","osm_type":"n","addr:city":"Sunnyvale","addr:state":"CA","addr:street":"South Murphy Avenue","addr:postcode":94086,"opening_hours":"Tu-Th 11:30-21:00; Fr-Sa 11:30-22:00; Su 12:00-20:00","addr:housenumber":168}},"website":"https://www.robertoscantina.com/","opening_hours":"Tu-Th 11:30-21:00; Fr-Sa 11:30-22:00; Su 12:00-20:00","catering":{"cuisine":"mexican"},"place_id":"51f85278d0ec815ec059dafdcb2b32b04240f00103f9012c72d2d200000000920311526f626572746f27732043616e74696e61"},"geometry":{"type":"Point","coordinates":[-122.030079,37.376531099896695]}},{"type":"Feature","properties":{"name":"Minh’s","country":"United States","country_code":"us","state":"California","county":"Santa Clara County","city":"Sunnyvale","postcode":"94089","street":"Persian Drive","housenumber":"1274","lon":-121.99768,"lat":37.4066117,"state_code":"CA","formatted":"Minh’s, 1274 Persian Drive, Sunnyvale, CA 94089, United States of America","address_line1":"Minh’s","address_line2":"1274 Persian Drive, Sunnyvale, CA 94089, United States of America","categories":["catering","catering.restaurant","catering.restaurant.vietnamese"],"details":["details","details.catering","details.contact"],"datasource":{"sourcename":"openstreetmap","attribution":"© OpenStreetMap contributors","license":"Open Database License","url":"https://www.openstreetmap.org/copyright","raw":{"name":"Minh’s","phone":"+1-408-734-2200","osm_id":4374659109,"amenity":"restaurant","cuisine":"vietnamese","osm_type":"n","addr:street":"Persian Drive","opening_hours":"Mo-Fr 10:00-15:00","addr:housenumber":1274}},"opening_hours":"Mo-Fr 10:00-15:00","contact":{"phone":"+1-408-734-2200"},"catering":{"cuisine":"vietnamese"},"place_id":"51e4f736fdd97f5ec0594a9f28da0bb44240f00103f9012500c004010000009203084d696e68e2809973"},"geometry":{"type":"Point","coordinates":[-121.99768,37.406611699900694]}},{"type":"Feature","properties":{"name":"Metro City Restaurant & Bar","country":"United States","country_code":"us","state":"California","county":"Santa Clara County","city":"Sunnyvale","postcode":"94086","street":"South Murphy Avenue","housenumber":"151","lon":-122.0302958,"lat":37.3768802,"state_code":"CA","formatted":"Metro City Restaurant & Bar, 151 South Murphy Avenue, Sunnyvale, CA 94086, United States of America","address_line1":"Metro City Restaurant & Bar","address_line2":"151 South Murphy Avenue, Sunnyvale, CA 94086, United States of America","categories":["catering","catering.restaurant"],"details":["details"],"datasource":{"sourcename":"openstreetmap","attribution":"© OpenStreetMap contributors","license":"Open Database License","url":"https://www.openstreetmap.org/copyright","raw":{"name":"Metro City Restaurant & Bar","osm_id":5062796121,"amenity":"restaurant","website":"https://www.metrocitysunnyvale.com","osm_type":"n","addr:city":"Sunnyvale","addr:state":"CA","addr:street":"South Murphy Avenue","addr:postcode":94086,"opening_hours":"Mo-Su 08:00-21:00","addr:housenumber":151}},"website":"https://www.metrocitysunnyvale.com","opening_hours":"Mo-Su 08:00-21:00","place_id":"51318dcb5df0815ec0598288429c3db04240f00103f9015923c42d0100000092031b4d6574726f20436974792052657374617572616e74202620426172"},"geometry":{"type":"Point","coordinates":[-122.03029579999999,37.376880199896746]}},{"type":"Feature","properties":{"name":"Noodle+ Mongolian BBQ","country":"United States","country_code":"us","state":"California","county":"Santa Clara County","city":"Sunnyvale","postcode":"94087","street":"New Brunswick Avenue","lon":-122.0424584,"lat":37.339201,"state_code":"CA","formatted":"Noodle+ Mongolian BBQ, New Brunswick Avenue, Sunnyvale, CA 94087, United States of America","address_line1":"Noodle+ Mongolian BBQ","address_line2":"New Brunswick Avenue, Sunnyvale, CA 94087, United States of America","categories":["catering","catering.restaurant"],"details":["details","details.catering"],"datasource":{"sourcename":"openstreetmap","attribution":"© OpenStreetMap contributors","license":"Open Database License","url":"https://www.openstreetmap.org/copyright","raw":{"name":"Noodle+ Mongolian BBQ","osm_id":8735359319,"amenity":"restaurant","cuisine":"mongolian_grill","website":"http://www.noodleplusmongolianbbq.com/","osm_type":"n","opening_hours":"Mo-Su 11:00-21:00"}},"website":"http://www.noodleplusmongolianbbq.com/","opening_hours":"Mo-Su 11:00-21:00","catering":{"cuisine":"mongolian_grill"},"place_id":"5130dc6fa3b7825ec05922a738f06aab4240f00103f9015701ab08020000009203154e6f6f646c652b204d6f6e676f6c69616e20424251"},"geometry":{"type":"Point","coordinates":[-122.04245839999999,37.33920099989179]}},{"type":"Feature","properties":{"name":"Pho #1","country":"United States","country_code":"us","state":"California","county":"Santa Clara County","city":"Sunnyvale","postcode":"94087","street":"East El Camino Real","housenumber":"568","lon":-122.0272201,"lat":37.3624209,"state_code":"CA","formatted":"Pho #1, 568 East El Camino Real, Sunnyvale, CA 94087, United States of America","address_line1":"Pho #1","address_line2":"568 East El Camino Real, Sunnyvale, CA 94087, United States of America","categories":["catering","catering.restaurant","catering.restaurant.vietnamese"],"details":["details","details.catering"],"datasource":{"sourcename":"openstreetmap","attribution":"© OpenStreetMap contributors","license":"Open Database License","url":"https://www.openstreetmap.org/copyright","raw":{"name":"Pho #1","osm_id":9625308695,"amenity":"restaurant","cuisine":"vietnamese","website":"http://www.pho1vn.com/","osm_type":"n","addr:city":"Sunnyvale","addr:unit":"Ste B","addr:state":"CA","addr:street":"E El Camino Real","addr:postcode":94087,"opening_hours":"Mo-Sa 11:00-23:00, Su 11:00-22:00","addr:housenumber":568}},"website":"http://www.pho1vn.com/","opening_hours":"Mo-Sa 11:00-23:00, Su 11:00-22:00","catering":{"cuisine":"vietnamese"},"place_id":"51ced25ff9bd815ec059b637dcce63ae4240f00103f901178eb63d0200000092030650686f202331"},"geometry":{"type":"Point","coordinates":[-122.0272201,37.36242089989484]}},{"type":"Feature","properties":{"name":"Saravana Bhavan","country":"United States","country_code":"us","state":"California","county":"Santa Clara County","city":"Sunnyvale","postcode":"94087","street":"South Mary Avenue","housenumber":"1305","lon":-122.05085612276724,"lat":37.350909099999996,"state_code":"CA","formatted":"Saravana Bhavan, 1305 South Mary Avenue, Sunnyvale, CA 94087, United States of America","address_line1":"Saravana Bhavan","address_line2":"1305 South Mary Avenue, Sunnyvale, CA 94087, United States of America","categories":["building","building.catering","catering","catering.restaurant","catering.restaurant.indian"],"details":["details","details.catering"],"datasource":{"sourcename":"openstreetmap","attribution":"© OpenStreetMap contributors","license":"Open Database License","url":"https://www.openstreetmap.org/copyright","raw":{"name":"Saravana Bhavan","osm_id":132686624,"amenity":"restaurant","cuisine":"indian","building":"yes","osm_type":"w","addr:street":"South Mary Avenue","opening_hours":"Mo-Fr 11:00-14:00,05:30-22:00; Sa,Su 11:00-15:00,05:30-22:00","addr:housenumber":1305}},"opening_hours":"Mo-Fr 11:00-14:00,05:30-22:00; Sa,Su 11:00-15:00,05:30-22:00","catering":{"cuisine":"indian"},"place_id":"518c050a3a41835ec05990f4e196eaac4240f00102f90120a3e8070000000092030f5361726176616e612042686176616e"},"geometry":{"type":"Point","coordinates":[-122.05085612276724,37.35090909989333]}},{"type":"Feature","properties":{"name":"10 Butchers Korean BBQ","country":"United States","country_code":"us","state":"California","county":"Santa Clara County","city":"Sunnyvale","postcode":"94087","street":"East El Camino Real","housenumber":"595","lon":-122.0254832018984,"lat":37.3628509,"state_code":"CA","formatted":"10 Butchers Korean BBQ, 595 East El Camino Real, Sunnyvale, CA 94087, United States of America","address_line1":"10 Butchers Korean BBQ","address_line2":"595 East El Camino Real, Sunnyvale, CA 94087, United States of America","categories":["building","building.catering","building.commercial","catering","catering.restaurant","catering.restaurant.barbecue"],"details":["details","details.building","details.catering"],"datasource":{"sourcename":"openstreetmap","attribution":"© OpenStreetMap contributors","license":"Open Database License","url":"https://www.openstreetmap.org/copyright","raw":{"name":"10 Butchers Korean BBQ","osm_id":155103518,"amenity":"restaurant","cuisine":"barbecue","website":"https://www.10butchers.net","building":"retail","osm_type":"w","addr:city":"Sunnyvale","addr:state":"CA","addr:street":"East El Camino Real","addr:postcode":94087,"building:levels":1,"addr:housenumber":595}},"website":"https://www.10butchers.net","catering":{"cuisine":"barbecue"},"building":{"levels":1,"type":"retail"},"place_id":"5110b04b84a1815ec059b82ff6e571ae4240f00102f9011eb13e09000000009203163130204275746368657273204b6f7265616e20424251"},"geometry":{"type":"Point","coordinates":[-122.0254832018984,37.36285089989491]}},{"type":"Feature","properties":{"name":"Chaat Bhavan","country":"United States","country_code":"us","state":"California","county":"Santa Clara County","city":"Sunnyvale","postcode":"95086","street":"East El Camino Real","lon":-122.00948222652904,"lat":37.3518501,"state_code":"CA","formatted":"Chaat Bhavan, East El Camino Real, Sunnyvale, CA 95086, United States of America","address_line1":"Chaat Bhavan","address_line2":"East El Camino Real, Sunnyvale, CA 95086, United States of America","categories":["building","building.catering","building.commercial","catering","catering.restaurant","catering.restaurant.indian"],"details":["details","details.building","details.catering"],"datasource":{"sourcename":"openstreetmap","attribution":"© OpenStreetMap contributors","license":"Open Database License","url":"https://www.openstreetmap.org/copyright","raw":{"name":"Chaat Bhavan","osm_id":207269880,"amenity":"restaurant","cuisine":"indian","building":"retail","osm_type":"w","roof:levels":0,"opening_hours":"Mo-Su 11:30-22:00","building:levels":1}},"opening_hours":"Mo-Su 11:30-22:00","catering":{"cuisine":"indian"},"building":{"levels":1,"type":"retail","roof":{"levels":0}},"place_id":"517835575b9b805ec0598011906c09ad4240f00102f901f8af5a0c0000000092030c43686161742042686176616e"},"geometry":{"type":"Point","coordinates":[-122.00948222652903,37.351850099893454]}},{"type":"Feature","properties":{"name":"Ananda Bhavan","country":"United States","country_code":"us","state":"California","county":"Santa Clara County","city":"Sunnyvale","postcode":"94085","street":"East Arques Avenue","housenumber":"920","lon":-122.00769651812124,"lat":37.3806397,"state_code":"CA","formatted":"Ananda Bhavan, 920 East Arques Avenue, Sunnyvale, CA 94085, United States of America","address_line1":"Ananda Bhavan","address_line2":"920 East Arques Avenue, Sunnyvale, CA 94085, United States of America","categories":["building","building.catering","catering","catering.restaurant","catering.restaurant.indian"],"details":["details","details.catering"],"datasource":{"sourcename":"openstreetmap","attribution":"© OpenStreetMap contributors","license":"Open Database License","url":"https://www.openstreetmap.org/copyright","raw":{"name":"Ananda Bhavan","osm_id":220508048,"amenity":"restaurant","cuisine":"indian","website":"www.anandabhavanusa.com","building":"yes","osm_type":"w","addr:street":"East Arques Avenue","addr:postcode":94085,"addr:housenumber":920}},"website":"www.anandabhavanusa.com","catering":{"cuisine":"indian"},"place_id":"51ec6789197e805ec059184f3bcdb8b04240f00102f90190af240d0000000092030d416e616e64612042686176616e"},"geometry":{"type":"Point","coordinates":[-122.00769651812124,37.380639699897245]}},{"type":"Feature","properties":{"name":"House of Phở","country":"United States","country_code":"us","state":"California","county":"Santa Clara County","city":"Sunnyvale","postcode":"95051","street":"East El Camino Real","lon":-122.0032819,"lat":37.35174069999999,"state_code":"CA","formatted":"House of Pho, East El Camino Real, Sunnyvale, CA 95051, United States of America","address_line1":"House of Pho","address_line2":"East El Camino Real, Sunnyvale, CA 95051, United States of America","categories":["building","building.catering","catering","catering.restaurant","catering.restaurant.vietnamese"],"details":["details","details.catering"],"datasource":{"sourcename":"openstreetmap","attribution":"© OpenStreetMap contributors","license":"Open Database License","url":"https://www.openstreetmap.org/copyright","raw":{"name":"House of Phở","osm_id":260784257,"amenity":"restaurant","cuisine":"vietnamese","name:en":"House of Pho","website":"http://house-of-pho.blogspot.com/","building":"yes","osm_type":"w","capacity:persons":110}},"website":"http://house-of-pho.blogspot.com/","name_international":{"en":"House of Pho"},"catering":{"cuisine":"vietnamese","capacity":110},"place_id":"51cc4a49c535805ec059735bd9d605ad4240f00102f90181408b0f0000000092030e486f757365206f66205068e1bb9f"},"geometry":{"type":"Point","coordinates":[-122.00328189999999,37.35174069989343]}},{"type":"Feature","properties":{"name":"Rama V Thai Cuisine","lon":-122.00610960000002,"lat":37.35140979989339,"categories":["catering","catering.restaurant","catering.restaurant.thai"],"details":["details.catering","details.contact"],"datasource":{"sourcename":"openstreetmap","attribution":"© OpenStreetMap contributors","license":"Open Database License","url":"https://www.openstreetmap.org/copyright","raw":{"name":"Rama V Thai Cuisine","phone":4087382177,"osm_id":266630162,"amenity":"restaurant","cuisine":"thai","osm_type":"n","addr:street":"East El Camino Real","addr:housenumber":1028}},"contact":{"phone":4087382177},"catering":{"cuisine":"thai"},"place_id":"51450c851964805ec0599c040ffffaac4240f00103f9011274e40f0000000092031352616d61205620546861692043756973696e65"},"geometry":{"type":"Point","coordinates":[-122.00610960000002,37.35140979989339]}}]}